[
  {
    "id": 1,
    "regionCode": "MMR017",
    "districtCode": "MMR017D006",
    "townshipCode": "MMR017024701",
    "townshipNameEn": "Bogale",
    "townshipNameMm": "ဘိုကလေး",
    "longitude": 95.3968,
    "latitude": 16.295,
    "postalCode": "10230"
  },
  {
    "id": 2,
    "regionCode": "MMR017",
    "districtCode": "MMR017D005",
    "townshipCode": "MMR017022701",
    "townshipNameEn": "Danubyu",
    "townshipNameMm": "ဓနုဖြူ",
    "longitude": 95.59583,
    "latitude": 17.25468,
    "postalCode": "10150"
  },
  {
    "id": 3,
    "regionCode": "MMR017",
    "districtCode": "MMR017D006",
    "townshipCode": "MMR017026701",
    "townshipNameEn": "Dedaye",
    "townshipNameMm": "ဒေးဒရဲ",
    "longitude": 95.88512,
    "latitude": 16.40806,
    "postalCode": "10260"
  },
  {
    "id": 4,
    "regionCode": "MMR017",
    "districtCode": "MMR017D003",
    "townshipCode": "MMR017015701",
    "townshipNameEn": "Einme",
    "townshipNameMm": "အိမ်မဲ",
    "longitude": 95.1805,
    "latitude": 16.8962,
    "postalCode": "10190"
  },
  {
    "id": 5,
    "regionCode": "MMR017",
    "districtCode": "MMR017D002",
    "townshipCode": "MMR017008703",
    "townshipNameEn": "Du Yar",
    "townshipNameMm": "ဒူးယား",
    "longitude": 95.4802,
    "latitude": 17.5616,
    "postalCode": "10690"
  },
  {
    "id": 6,
    "regionCode": "MMR017",
    "districtCode": "MMR017D002",
    "townshipCode": "MMR017008701",
    "townshipNameEn": "Hinthada",
    "townshipNameMm": "ဟင်္သာတ",
    "longitude": 95.45818,
    "latitude": 17.64958,
    "postalCode": "10060"
  },
  {
    "id": 7,
    "regionCode": "MMR017",
    "districtCode": "MMR017D002",
    "townshipCode": "MMR017008702",
    "townshipNameEn": "Ta Loke Htaw",
    "townshipNameMm": "တလုတ္ထော်",
    "longitude": 95.3046,
    "latitude": 17.6419,
    "postalCode": "10680"
  },
  {
    "id": 8,
    "regionCode": "MMR017",
    "districtCode": "MMR017D002",
    "townshipCode": "MMR017013702",
    "townshipNameEn": "Htoogyi",
    "townshipNameMm": "ထူးကြီး",
    "longitude": 95.26073,
    "latitude": 17.97132,
    "postalCode": "10660"
  },
  {
    "id": 9,
    "regionCode": "MMR017",
    "districtCode": "MMR017D002",
    "townshipCode": "MMR017013701",
    "townshipNameEn": "Ingapu",
    "townshipNameMm": "အင်္ဂပူ",
    "longitude": 95.26926,
    "latitude": 17.80981,
    "postalCode": "10050"
  },
  {
    "id": 10,
    "regionCode": "MMR017",
    "districtCode": "MMR017D002",
    "townshipCode": "MMR017013703",
    "townshipNameEn": "Me Za Li Kone",
    "townshipNameMm": "မဲဇလီကုန်း",
    "longitude": 95.2288,
    "latitude": 17.9009,
    "postalCode": "10670"
  },
  {
    "id": 11,
    "regionCode": "MMR017",
    "districtCode": "MMR017D001",
    "townshipCode": "MMR017002701",
    "townshipNameEn": "Kangyidaunt",
    "townshipNameMm": "ကန်ကြီးထောင့်",
    "longitude": 94.89476,
    "latitude": 16.9329,
    "postalCode": "10020"
  },
  {
    "id": 12,
    "regionCode": "MMR017",
    "districtCode": "MMR017D006",
    "townshipCode": "MMR017025701",
    "townshipNameEn": "Kyaiklat",
    "townshipNameMm": "ကျိုက်လတ်",
    "longitude": 95.72614,
    "latitude": 16.44431,
    "postalCode": "10240"
  },
  {
    "id": 13,
    "regionCode": "MMR017",
    "districtCode": "MMR017D002",
    "townshipCode": "MMR017012702",
    "townshipNameEn": "Batye",
    "townshipNameMm": "ဘက်ရဲ",
    "longitude": 95.14703,
    "latitude": 18.30044,
    "postalCode": "10630"
  },
  {
    "id": 14,
    "regionCode": "MMR017",
    "districtCode": "MMR017D002",
    "townshipCode": "MMR017012701",
    "townshipNameEn": "Kyangin",
    "townshipNameMm": "ကြံခင်း",
    "longitude": 95.23914,
    "latitude": 18.34035,
    "postalCode": "10030"
  },
  {
    "id": 15,
    "regionCode": "MMR017",
    "districtCode": "MMR017D001",
    "townshipCode": "MMR017007701",
    "townshipNameEn": "Kyaunggon",
    "townshipNameMm": "ကျောင်းကုန်း",
    "longitude": 95.1904,
    "latitude": 17.10768,
    "postalCode": "10100"
  },
  {
    "id": 16,
    "regionCode": "MMR017",
    "districtCode": "MMR017D001",
    "townshipCode": "MMR017005702",
    "townshipNameEn": "Ahtaung",
    "townshipNameMm": "အထောင်",
    "longitude": 95.33365,
    "latitude": 17.34855,
    "postalCode": "10720"
  },
  {
    "id": 17,
    "regionCode": "MMR017",
    "districtCode": "MMR017D001",
    "townshipCode": "MMR017005701",
    "townshipNameEn": "Kyonpyaw",
    "townshipNameMm": "ကျုံပျော်",
    "longitude": 95.2,
    "latitude": 17.3,
    "postalCode": "10090"
  },
  {
    "id": 18,
    "regionCode": "MMR017",
    "districtCode": "MMR017D004",
    "townshipCode": "MMR017016703",
    "townshipNameEn": "Labutta (3) Mile",
    "townshipNameMm": "လပွတ္တာ (၃) မိုင်",
    "longitude": 94.78124,
    "latitude": 16.19983,
    "postalCode": "10740"
  },
  {
    "id": 19,
    "regionCode": "MMR017",
    "districtCode": "MMR017D004",
    "townshipCode": "MMR017016701",
    "townshipNameEn": "Labutta",
    "townshipNameMm": "လပွတ္တာ",
    "longitude": 94.75889,
    "latitude": 16.14557,
    "postalCode": "10120"
  },
  {
    "id": 20,
    "regionCode": "MMR017",
    "districtCode": "MMR017D004",
    "townshipCode": "MMR017016702",
    "townshipNameEn": "Pyinsalu",
    "townshipNameMm": "ပြင်စလူ",
    "longitude": 94.80943,
    "latitude": 15.82677,
    "postalCode": "10730"
  },
  {
    "id": 21,
    "regionCode": "MMR017",
    "districtCode": "MMR017D002",
    "townshipCode": "MMR017010701",
    "townshipNameEn": "Lemyethna",
    "townshipNameMm": "လေးမျက်နှာ",
    "longitude": 95.17454,
    "latitude": 17.60038,
    "postalCode": "10070"
  },
  {
    "id": 22,
    "regionCode": "MMR017",
    "districtCode": "MMR017D005",
    "townshipCode": "MMR017019701",
    "townshipNameEn": "Maubin",
    "townshipNameMm": "မအူပင်",
    "longitude": 95.6494,
    "latitude": 16.73023,
    "postalCode": "10180"
  },
  {
    "id": 23,
    "regionCode": "MMR017",
    "districtCode": "MMR017D004",
    "townshipCode": "MMR017018701",
    "townshipNameEn": "Mawlamyinegyun",
    "townshipNameMm": "မော်လမြိုင်ကျွန်း",
    "longitude": 95.26298,
    "latitude": 16.37894,
    "postalCode": "10220"
  },
  {
    "id": 24,
    "regionCode": "MMR017",
    "districtCode": "MMR017D002",
    "townshipCode": "MMR017011703",
    "townshipNameEn": "In Pin",
    "townshipNameMm": "အင်ပင်",
    "longitude": 95.269,
    "latitude": 18.0935,
    "postalCode": "10650"
  },
  {
    "id": 25,
    "regionCode": "MMR017",
    "districtCode": "MMR017D002",
    "townshipCode": "MMR017011702",
    "townshipNameEn": "Kanaung",
    "townshipNameMm": "ကနောင်",
    "longitude": 95.38137,
    "latitude": 18.21566,
    "postalCode": "10640"
  },
  {
    "id": 26,
    "regionCode": "MMR017",
    "districtCode": "MMR017D002",
    "townshipCode": "MMR017011701",
    "townshipNameEn": "Myanaung",
    "townshipNameMm": "မြန်အောင်",
    "longitude": 95.31779,
    "latitude": 18.28696,
    "postalCode": "10040"
  },
  {
    "id": 27,
    "regionCode": "MMR017",
    "districtCode": "MMR017D003",
    "townshipCode": "MMR017014701",
    "townshipNameEn": "Myaungmya",
    "townshipNameMm": "မြောင်းမြ",
    "longitude": 94.92977,
    "latitude": 16.59926,
    "postalCode": "10210"
  },
  {
    "id": 28,
    "regionCode": "MMR017",
    "districtCode": "MMR017D001",
    "townshipCode": "MMR017004703",
    "townshipNameEn": "Hainggyikyun",
    "townshipNameMm": "ဟိုင်းကြီးကျွန်း",
    "longitude": 94.34411,
    "latitude": 16.01602,
    "postalCode": "10760"
  },
  {
    "id": 29,
    "regionCode": "MMR017",
    "districtCode": "MMR017D001",
    "townshipCode": "MMR017004701",
    "townshipNameEn": "Ngapudaw",
    "townshipNameMm": "ငပုတော",
    "longitude": 94.69224,
    "latitude": 16.5431,
    "postalCode": "10130"
  },
  {
    "id": 30,
    "regionCode": "MMR017",
    "districtCode": "MMR017D001",
    "townshipCode": "MMR017004702",
    "townshipNameEn": "Ngayokekaung",
    "townshipNameMm": "ငရုတ်ကောင်း",
    "longitude": 94.3019,
    "latitude": 16.52089,
    "postalCode": "10750"
  },
  {
    "id": 31,
    "regionCode": "MMR017",
    "districtCode": "MMR017D005",
    "townshipCode": "MMR017021701",
    "townshipNameEn": "Nyaungdon",
    "townshipNameMm": "ညောင်တုန်း",
    "longitude": 95.63359,
    "latitude": 17.04903,
    "postalCode": "10160"
  },
  {
    "id": 32,
    "regionCode": "MMR017",
    "districtCode": "MMR017D005",
    "townshipCode": "MMR017020701",
    "townshipNameEn": "Pantanaw",
    "townshipNameMm": "ပန်းတနော်",
    "longitude": 95.46595,
    "latitude": 16.98212,
    "postalCode": "10170"
  },
  {
    "id": 33,
    "regionCode": "MMR017",
    "districtCode": "MMR017D001",
    "townshipCode": "MMR017001704",
    "townshipNameEn": "Chaung Thar",
    "townshipNameMm": "ချောင်းသာ",
    "longitude": 94.4447,
    "latitude": 16.9597,
    "postalCode": "10620"
  },
  {
    "id": 34,
    "regionCode": "MMR017",
    "districtCode": "MMR017D001",
    "townshipCode": "MMR017001703",
    "townshipNameEn": "Ngwesaung",
    "townshipNameMm": "ငွေဆောင်",
    "longitude": 94.38711,
    "latitude": 16.86379,
    "postalCode": "10610"
  },
  {
    "id": 35,
    "regionCode": "MMR017",
    "districtCode": "MMR017D001",
    "townshipCode": "MMR017001701",
    "townshipNameEn": "Pathein",
    "townshipNameMm": "ပုသိမ်",
    "longitude": 94.73303,
    "latitude": 16.77924,
    "postalCode": "10010"
  },
  {
    "id": 36,
    "regionCode": "MMR017",
    "districtCode": "MMR017D001",
    "townshipCode": "MMR017001702",
    "townshipNameEn": "Shwethaungyan",
    "townshipNameMm": "ရွှေသောင်ယံ",
    "longitude": 94.46133,
    "latitude": 17.07674,
    "postalCode": "10600"
  },
  {
    "id": 37,
    "regionCode": "MMR017",
    "districtCode": "MMR017D006",
    "townshipCode": "MMR017023702",
    "townshipNameEn": "Ahmar",
    "townshipNameMm": "အမာ",
    "longitude": 95.29017,
    "latitude": 15.7994,
    "postalCode": "10780"
  },
  {
    "id": 38,
    "regionCode": "MMR017",
    "districtCode": "MMR017D006",
    "townshipCode": "MMR017023701",
    "townshipNameEn": "Pyapon",
    "townshipNameMm": "ဖျာပုံ",
    "longitude": 95.68019,
    "latitude": 16.29161,
    "postalCode": "10250"
  },
  {
    "id": 39,
    "regionCode": "MMR017",
    "districtCode": "MMR017D001",
    "townshipCode": "MMR017003701",
    "townshipNameEn": "Thabaung",
    "townshipNameMm": "သာပေါင်း",
    "longitude": 94.80589,
    "latitude": 17.04734,
    "postalCode": "10110"
  },
  {
    "id": 40,
    "regionCode": "MMR017",
    "districtCode": "MMR017D003",
    "townshipCode": "MMR017017702",
    "townshipNameEn": "Kyonmangae",
    "townshipNameMm": "ကျုံမငေး",
    "longitude": 95.1319,
    "latitude": 16.43803,
    "postalCode": "10770"
  },
  {
    "id": 41,
    "regionCode": "MMR017",
    "districtCode": "MMR017D003",
    "townshipCode": "MMR017017701",
    "townshipNameEn": "Wakema",
    "townshipNameMm": "ဝါးခယ်မ",
    "longitude": 95.18041,
    "latitude": 16.60383,
    "postalCode": "10200"
  },
  {
    "id": 42,
    "regionCode": "MMR017",
    "districtCode": "MMR017D001",
    "townshipCode": "MMR017006703",
    "townshipNameEn": "Ahthoke",
    "townshipNameMm": "အသုတ်",
    "longitude": 95.08331,
    "latitude": 17.19974,
    "postalCode": "10710"
  },
  {
    "id": 43,
    "regionCode": "MMR017",
    "districtCode": "MMR017D001",
    "townshipCode": "MMR017006702",
    "townshipNameEn": "Ngathaingchaung",
    "townshipNameMm": "ငသိုင်းချောင်း",
    "longitude": 95.07731,
    "latitude": 17.39927,
    "postalCode": "10700"
  },
  {
    "id": 44,
    "regionCode": "MMR017",
    "districtCode": "MMR017D001",
    "townshipCode": "MMR017006701",
    "townshipNameEn": "Yegyi",
    "townshipNameMm": "ရေကြည်",
    "longitude": 95.12067,
    "latitude": 17.34456,
    "postalCode": "10080"
  },
  {
    "id": 45,
    "regionCode": "MMR017",
    "districtCode": "MMR017D002",
    "townshipCode": "MMR017009701",
    "townshipNameEn": "Zalun",
    "townshipNameMm": "ဇလွန်",
    "longitude": 95.55666,
    "latitude": 17.4781,
    "postalCode": "10140"
  },
  {
    "id": 46,
    "regionCode": "MMR007",
    "districtCode": "MMR007D001",
    "townshipCode": "MMR007001701",
    "townshipNameEn": "Bago",
    "townshipNameMm": "ပဲခူး",
    "longitude": 96.48389,
    "latitude": 17.33583,
    "postalCode": "08010"
  },
  {
    "id": 47,
    "regionCode": "MMR007",
    "districtCode": "MMR007D001",
    "townshipCode": "MMR007001702",
    "townshipNameEn": "Hpayargyi",
    "townshipNameMm": "ဘုရားကြီး",
    "longitude": 96.52654,
    "latitude": 17.47538,
    "postalCode": "08600"
  },
  {
    "id": 48,
    "regionCode": "MMR007",
    "districtCode": "MMR007D001",
    "townshipCode": "MMR007001703",
    "townshipNameEn": "Inntakaw",
    "townshipNameMm": "အင်းတကော်",
    "longitude": 96.37637,
    "latitude": 17.18087,
    "postalCode": "08610"
  },
  {
    "id": 49,
    "regionCode": "MMR007",
    "districtCode": "MMR007D001",
    "townshipCode": "MMR007007701",
    "townshipNameEn": "Daik-U",
    "townshipNameMm": "ဒိုက်ဦး",
    "longitude": 96.66969,
    "latitude": 17.78967,
    "postalCode": "08060"
  },
  {
    "id": 50,
    "regionCode": "MMR007",
    "districtCode": "MMR007D001",
    "townshipCode": "MMR007003701",
    "townshipNameEn": "Kawa",
    "townshipNameMm": "ကဝ",
    "longitude": 96.46632,
    "latitude": 17.08967,
    "postalCode": "08090"
  },
  {
    "id": 51,
    "regionCode": "MMR007",
    "districtCode": "MMR007D001",
    "townshipCode": "MMR007003702",
    "townshipNameEn": "Thetkala",
    "townshipNameMm": "သက္ကလ",
    "longitude": 96.59657,
    "latitude": 17.02939,
    "postalCode": "08670"
  },
  {
    "id": 52,
    "regionCode": "MMR007",
    "districtCode": "MMR007D002",
    "townshipCode": "MMR007011701",
    "townshipNameEn": "Kyaukkyi",
    "townshipNameMm": "ကျောက်ကြီး",
    "longitude": 96.76862,
    "latitude": 18.32764,
    "postalCode": "08040"
  },
  {
    "id": 53,
    "regionCode": "MMR007",
    "districtCode": "MMR007D001",
    "townshipCode": "MMR007006703",
    "townshipNameEn": "Hpa Do",
    "townshipNameMm": "ဖဒို",
    "longitude": 96.5549,
    "latitude": 18.0377,
    "postalCode": "08630"
  },
  {
    "id": 54,
    "regionCode": "MMR007",
    "districtCode": "MMR007D001",
    "townshipCode": "MMR007006701",
    "townshipNameEn": "Kyauktaga",
    "townshipNameMm": "ကျောက်တံခါး",
    "longitude": 96.61391,
    "latitude": 18.15867,
    "postalCode": "08020"
  },
  {
    "id": 55,
    "regionCode": "MMR007",
    "districtCode": "MMR007D001",
    "townshipCode": "MMR007006702",
    "townshipNameEn": "Penwegon",
    "townshipNameMm": "ပဲနွယ်ကုန်း",
    "longitude": 96.56886,
    "latitude": 18.22271,
    "postalCode": "08620"
  },
  {
    "id": 56,
    "regionCode": "MMR007",
    "districtCode": "MMR007D001",
    "townshipCode": "MMR007005702",
    "townshipNameEn": "Madauk",
    "townshipNameMm": "မဒေါက်",
    "longitude": 96.84535,
    "latitude": 17.91491,
    "postalCode": "08640"
  },
  {
    "id": 57,
    "regionCode": "MMR007",
    "districtCode": "MMR007D001",
    "townshipCode": "MMR007005701",
    "townshipNameEn": "Nyaunglebin",
    "townshipNameMm": "ညောင်လေးပင်",
    "longitude": 96.72151,
    "latitude": 17.95323,
    "postalCode": "08030"
  },
  {
    "id": 58,
    "regionCode": "MMR007",
    "districtCode": "MMR007D001",
    "townshipCode": "MMR007005704",
    "townshipNameEn": "Peinzalok",
    "townshipNameMm": "ပိန်းဇလုပ်",
    "longitude": 96.66836,
    "latitude": 18.0699,
    "postalCode": "08660"
  },
  {
    "id": 59,
    "regionCode": "MMR007",
    "districtCode": "MMR007D001",
    "townshipCode": "MMR007005703",
    "townshipNameEn": "Pyuntasa",
    "townshipNameMm": "ပြွန်တန်ဆာ",
    "longitude": 96.71597,
    "latitude": 17.87517,
    "postalCode": "08650"
  },
  {
    "id": 60,
    "regionCode": "MMR007",
    "districtCode": "MMR007D002",
    "townshipCode": "MMR007013702",
    "townshipNameEn": "Kywe Pwe",
    "townshipNameMm": "ကျွဲပွဲ",
    "longitude": 96.4099,
    "latitude": 18.7,
    "postalCode": "08720"
  },
  {
    "id": 61,
    "regionCode": "MMR007",
    "districtCode": "MMR007D002",
    "townshipCode": "MMR007013701",
    "townshipNameEn": "Oktwin",
    "townshipNameMm": "အုတ်တွင်း",
    "longitude": 96.41363,
    "latitude": 18.83293,
    "postalCode": "08120"
  },
  {
    "id": 62,
    "regionCode": "MMR007",
    "districtCode": "MMR007D002",
    "townshipCode": "MMR007012702",
    "townshipNameEn": "Kanyutkwin",
    "townshipNameMm": "ကညွတ်ကွင်း",
    "longitude": 96.49218,
    "latitude": 18.3404,
    "postalCode": "08730"
  },
  {
    "id": 63,
    "regionCode": "MMR007",
    "districtCode": "MMR007D002",
    "townshipCode": "MMR007012701",
    "townshipNameEn": "Phyu",
    "townshipNameMm": "ဖြူး",
    "longitude": 96.43572,
    "latitude": 18.48438,
    "postalCode": "08140"
  },
  {
    "id": 64,
    "regionCode": "MMR007",
    "districtCode": "MMR007D002",
    "townshipCode": "MMR007012703",
    "townshipNameEn": "Zayyawadi",
    "townshipNameMm": "ဇေယျ၀တီ",
    "longitude": 96.43084,
    "latitude": 18.54097,
    "postalCode": "08740"
  },
  {
    "id": 65,
    "regionCode": "MMR007",
    "districtCode": "MMR007D001",
    "townshipCode": "MMR007008701",
    "townshipNameEn": "Shwegyin",
    "townshipNameMm": "ရွှေကျင်",
    "longitude": 96.87767,
    "latitude": 17.92304,
    "postalCode": "08050"
  },
  {
    "id": 66,
    "regionCode": "MMR007",
    "districtCode": "MMR007D002",
    "townshipCode": "MMR007009702",
    "townshipNameEn": "Kaytumati",
    "townshipNameMm": "ကေတုမတီ",
    "longitude": 96.40357,
    "latitude": 19.01432,
    "postalCode": "08680"
  },
  {
    "id": 67,
    "regionCode": "MMR007",
    "districtCode": "MMR007D002",
    "townshipCode": "MMR007009701",
    "townshipNameEn": "Taungoo",
    "townshipNameMm": "တောင်ငူ",
    "longitude": 96.43314,
    "latitude": 18.93953,
    "postalCode": "08100"
  },
  {
    "id": 68,
    "regionCode": "MMR007",
    "districtCode": "MMR007D001",
    "townshipCode": "MMR007002701",
    "townshipNameEn": "Thanatpin",
    "townshipNameMm": "သနပ်ပင်",
    "longitude": 96.57664,
    "latitude": 17.28903,
    "postalCode": "08080"
  },
  {
    "id": 69,
    "regionCode": "MMR007",
    "districtCode": "MMR007D001",
    "townshipCode": "MMR007004701",
    "townshipNameEn": "Waw",
    "townshipNameMm": "ဝေါ",
    "longitude": 96.68234,
    "latitude": 17.4836,
    "postalCode": "08070"
  },
  {
    "id": 70,
    "regionCode": "MMR007",
    "districtCode": "MMR007D002",
    "townshipCode": "MMR007010702",
    "townshipNameEn": "Hswar",
    "townshipNameMm": "ဆွာ",
    "longitude": 96.29072,
    "latitude": 19.26498,
    "postalCode": "08690"
  },
  {
    "id": 71,
    "regionCode": "MMR007",
    "districtCode": "MMR007D002",
    "townshipCode": "MMR007010704",
    "townshipNameEn": "Myo Hla",
    "townshipNameMm": "မြို့လှ",
    "longitude": 96.26628,
    "latitude": 19.40442,
    "postalCode": "08710"
  },
  {
    "id": 72,
    "regionCode": "MMR007",
    "districtCode": "MMR007D002",
    "townshipCode": "MMR007010703",
    "townshipNameEn": "Yae Ni",
    "townshipNameMm": "ရေနီ",
    "longitude": 96.26804,
    "latitude": 19.47438,
    "postalCode": "08700"
  },
  {
    "id": 73,
    "regionCode": "MMR007",
    "districtCode": "MMR007D002",
    "townshipCode": "MMR007010701",
    "townshipNameEn": "Yedashe",
    "townshipNameMm": "ရေတာရှည်",
    "longitude": 96.34234,
    "latitude": 19.15693,
    "postalCode": "08110"
  },
  {
    "id": 74,
    "regionCode": "MMR007",
    "districtCode": "MMR008D002",
    "townshipCode": "MMR008014701",
    "townshipNameEn": "Gyobingauk",
    "townshipNameMm": "ကြို့ပင်ကောက်",
    "longitude": 95.65259,
    "latitude": 18.22989,
    "postalCode": "18140"
  },
  {
    "id": 75,
    "regionCode": "MMR007",
    "districtCode": "MMR008D002",
    "townshipCode": "MMR008008701",
    "townshipNameEn": "Letpadan",
    "townshipNameMm": "လက်ပံတန်း",
    "longitude": 95.74529,
    "latitude": 17.779,
    "postalCode": "18080"
  },
  {
    "id": 76,
    "regionCode": "MMR007",
    "districtCode": "MMR008D002",
    "townshipCode": "MMR008009701",
    "townshipNameEn": "Minhla",
    "townshipNameMm": "မင်းလှ",
    "longitude": 95.70905,
    "latitude": 17.97389,
    "postalCode": "18090"
  },
  {
    "id": 77,
    "regionCode": "MMR007",
    "districtCode": "MMR008D002",
    "townshipCode": "MMR008009702",
    "townshipNameEn": "Sit Kwin",
    "townshipNameMm": "စစ်ကွင်း",
    "longitude": 95.7232,
    "latitude": 17.8941,
    "postalCode": "18660"
  },
  {
    "id": 78,
    "regionCode": "MMR007",
    "districtCode": "MMR008D002",
    "townshipCode": "MMR008013701",
    "townshipNameEn": "Monyo",
    "townshipNameMm": "မိုးညို",
    "longitude": 95.51185,
    "latitude": 18.02719,
    "postalCode": "18130"
  },
  {
    "id": 79,
    "regionCode": "MMR007",
    "districtCode": "MMR008D002",
    "townshipCode": "MMR008012701",
    "townshipNameEn": "Nattalin",
    "townshipNameMm": "နတ်တလင်း",
    "longitude": 95.54731,
    "latitude": 18.42753,
    "postalCode": "18120"
  },
  {
    "id": 80,
    "regionCode": "MMR007",
    "districtCode": "MMR008D002",
    "townshipCode": "MMR008012702",
    "townshipNameEn": "Tar Pun",
    "townshipNameMm": "တာပွန်",
    "longitude": 95.4549,
    "latitude": 18.361,
    "postalCode": "18680"
  },
  {
    "id": 81,
    "regionCode": "MMR007",
    "districtCode": "MMR008D002",
    "townshipCode": "MMR008010702",
    "townshipNameEn": "Oe Thei Kone",
    "townshipNameMm": "အိုးသည်ကုန်း",
    "longitude": 95.6935,
    "latitude": 18.0432,
    "postalCode": "18670"
  },
  {
    "id": 82,
    "regionCode": "MMR007",
    "districtCode": "MMR008D002",
    "townshipCode": "MMR008010701",
    "townshipNameEn": "Okpho",
    "townshipNameMm": "အုတ်ဖို",
    "longitude": 95.67177,
    "latitude": 18.13022,
    "postalCode": "18100"
  },
  {
    "id": 83,
    "regionCode": "MMR007",
    "districtCode": "MMR008D001",
    "townshipCode": "MMR008003702",
    "townshipNameEn": "Oakshitpin",
    "townshipNameMm": "ဥရှစ်ပင်",
    "longitude": 95.01383,
    "latitude": 18.68519,
    "postalCode": "18610"
  },
  {
    "id": 84,
    "regionCode": "MMR007",
    "districtCode": "MMR008D001",
    "townshipCode": "MMR008003701",
    "townshipNameEn": "Padaung",
    "townshipNameMm": "ပန်းတောင်း",
    "longitude": 95.15353,
    "latitude": 18.71797,
    "postalCode": "18030"
  },
  {
    "id": 85,
    "regionCode": "MMR007",
    "districtCode": "MMR008D001",
    "townshipCode": "MMR008002701",
    "townshipNameEn": "Paukkhaung",
    "townshipNameMm": "ပေါက်ခေါင်း",
    "longitude": 95.54819,
    "latitude": 18.9028,
    "postalCode": "18020"
  },
  {
    "id": 86,
    "regionCode": "MMR007",
    "districtCode": "MMR008D001",
    "townshipCode": "MMR008004701",
    "townshipNameEn": "Paungde",
    "townshipNameMm": "ပေါင်းတည်",
    "longitude": 95.50721,
    "latitude": 18.48947,
    "postalCode": "18040"
  },
  {
    "id": 87,
    "regionCode": "MMR007",
    "districtCode": "MMR008D001",
    "townshipCode": "MMR008001702",
    "townshipNameEn": "Paungdale",
    "townshipNameMm": "ပေါင်းတလည်",
    "longitude": 95.38459,
    "latitude": 18.84968,
    "postalCode": "18600"
  },
  {
    "id": 88,
    "regionCode": "MMR007",
    "districtCode": "MMR008D001",
    "townshipCode": "MMR008001701",
    "townshipNameEn": "Pyay",
    "townshipNameMm": "ပြည်",
    "longitude": 95.22103,
    "latitude": 18.82151,
    "postalCode": "18010"
  },
  {
    "id": 89,
    "regionCode": "MMR007",
    "districtCode": "MMR008D001",
    "townshipCode": "MMR008006701",
    "townshipNameEn": "Shwedaung",
    "townshipNameMm": "ရွှေတောင်",
    "longitude": 95.21404,
    "latitude": 18.7051,
    "postalCode": "18060"
  },
  {
    "id": 90,
    "regionCode": "MMR007",
    "districtCode": "MMR008D002",
    "townshipCode": "MMR008007701",
    "townshipNameEn": "Thayarwady",
    "townshipNameMm": "သာယာဝတီ",
    "longitude": 95.78629,
    "latitude": 17.65441,
    "postalCode": "18070"
  },
  {
    "id": 91,
    "regionCode": "MMR007",
    "districtCode": "MMR008D002",
    "townshipCode": "MMR008007702",
    "townshipNameEn": "Thonse",
    "townshipNameMm": "သုံးဆယ်",
    "longitude": 95.78985,
    "latitude": 17.62988,
    "postalCode": "18650"
  },
  {
    "id": 92,
    "regionCode": "MMR007",
    "districtCode": "MMR008D001",
    "townshipCode": "MMR008005703",
    "townshipNameEn": "Inn Ma",
    "townshipNameMm": "အင်းမ",
    "longitude": 95.34904,
    "latitude": 18.52806,
    "postalCode": "18630"
  },
  {
    "id": 93,
    "regionCode": "MMR007",
    "districtCode": "MMR008D001",
    "townshipCode": "MMR008005702",
    "townshipNameEn": "Puteekone",
    "townshipNameMm": "ပုတီးကုန်း",
    "longitude": 95.45645,
    "latitude": 18.57236,
    "postalCode": "18620"
  },
  {
    "id": 94,
    "regionCode": "MMR007",
    "districtCode": "MMR008D001",
    "townshipCode": "MMR008005704",
    "townshipNameEn": "Sin Mee Swea",
    "townshipNameMm": "ဆင်မြီးဆွဲ",
    "longitude": 95.3594,
    "latitude": 18.7369,
    "postalCode": "18640"
  },
  {
    "id": 95,
    "regionCode": "MMR007",
    "districtCode": "MMR008D001",
    "townshipCode": "MMR008005701",
    "townshipNameEn": "Thegon",
    "townshipNameMm": "သဲကုန်း",
    "longitude": 95.41721,
    "latitude": 18.64698,
    "postalCode": "18050"
  },
  {
    "id": 96,
    "regionCode": "MMR007",
    "districtCode": "MMR008D002",
    "townshipCode": "MMR008011701",
    "townshipNameEn": "Zigon",
    "townshipNameMm": "ဇီးကုန်း",
    "longitude": 95.62304,
    "latitude": 18.33846,
    "postalCode": "18110"
  },
  {
    "id": 97,
    "regionCode": "MMR004",
    "districtCode": "MMR004D001",
    "townshipCode": "MMR004001701",
    "townshipNameEn": "Falam",
    "townshipNameMm": "ဖလမ်း",
    "longitude": 93.68034,
    "latitude": 22.91105,
    "postalCode": "03030"
  },
  {
    "id": 98,
    "regionCode": "MMR004",
    "districtCode": "MMR004D001",
    "townshipCode": "MMR004001702",
    "townshipNameEn": "Rihkhawdar",
    "townshipNameMm": "ရိခေါ်ဒါရ်",
    "longitude": 93.38869,
    "latitude": 23.36097,
    "postalCode": "03620"
  },
  {
    "id": 99,
    "regionCode": "MMR004",
    "districtCode": "MMR004D001",
    "townshipCode": "MMR004001703",
    "townshipNameEn": "Webula",
    "townshipNameMm": "ဝေဘူလ",
    "longitude": 93.9133,
    "latitude": 23.0168,
    "postalCode": "03630"
  },
  {
    "id": 100,
    "regionCode": "MMR004",
    "districtCode": "MMR004D003",
    "townshipCode": "MMR004002701",
    "townshipNameEn": "Hakha",
    "townshipNameMm": "ဟားခါး",
    "longitude": 93.60483,
    "latitude": 22.64011,
    "postalCode": "03010"
  },
  {
    "id": 101,
    "regionCode": "MMR004",
    "districtCode": "MMR004D003",
    "townshipCode": "MMR004002702",
    "townshipNameEn": "Surkhua",
    "townshipNameMm": "ဆူရ်ခွား",
    "longitude": 93.63416,
    "latitude": 22.25553,
    "postalCode": "03600"
  },
  {
    "id": 102,
    "regionCode": "MMR004",
    "districtCode": "MMR004D002",
    "townshipCode": "MMR004008701",
    "townshipNameEn": "Kanpetlet",
    "townshipNameMm": "ကန်ပက်လက်",
    "longitude": 94.05666,
    "latitude": 21.19337,
    "postalCode": "03080"
  },
  {
    "id": 103,
    "regionCode": "MMR004",
    "districtCode": "MMR004D002",
    "townshipCode": "MMR004008702",
    "townshipNameEn": "Kyin Dway",
    "townshipNameMm": "ကျင်ဒွေး",
    "longitude": 93.8382,
    "latitude": 20.973,
    "postalCode": "03690"
  },
  {
    "id": 104,
    "regionCode": "MMR004",
    "districtCode": "MMR004D004",
    "townshipCode": "MMR004007703",
    "townshipNameEn": "Lalengpi",
    "townshipNameMm": "လိုင်လင်းပီ",
    "longitude": 93.1143,
    "latitude": 21.9592,
    "postalCode": "03670"
  },
  {
    "id": 105,
    "regionCode": "MMR004",
    "districtCode": "MMR004D004",
    "townshipCode": "MMR004007701",
    "townshipNameEn": "Matupi",
    "townshipNameMm": "မတူပီ",
    "longitude": 93.44086,
    "latitude": 21.60475,
    "postalCode": "03060"
  },
  {
    "id": 106,
    "regionCode": "MMR004",
    "districtCode": "MMR004D004",
    "townshipCode": "MMR004007702",
    "townshipNameEn": "Rezua",
    "townshipNameMm": "ရေဇွာ",
    "longitude": 93.40857,
    "latitude": 22.05289,
    "postalCode": "03660"
  },
  {
    "id": 107,
    "regionCode": "MMR004",
    "districtCode": "MMR004D002",
    "townshipCode": "MMR004006701",
    "townshipNameEn": "Mindat",
    "townshipNameMm": "မင်းတပ်",
    "longitude": 93.97365,
    "latitude": 21.37176,
    "postalCode": "03070"
  },
  {
    "id": 108,
    "regionCode": "MMR004",
    "districtCode": "MMR004D002",
    "townshipCode": "MMR004006702",
    "townshipNameEn": "M'kuiimnu",
    "townshipNameMm": "မကွီအိမ်နူး",
    "longitude": 93.5945,
    "latitude": 21.1727,
    "postalCode": "03680"
  },
  {
    "id": 109,
    "regionCode": "MMR004",
    "districtCode": "MMR004D004",
    "townshipCode": "MMR004009701",
    "townshipNameEn": "Paletwa",
    "townshipNameMm": "ပလက်ဝ",
    "longitude": 92.85461,
    "latitude": 21.30441,
    "postalCode": "03090"
  },
  {
    "id": 110,
    "regionCode": "MMR004",
    "districtCode": "MMR004D004",
    "townshipCode": "MMR004009702",
    "townshipNameEn": "Samee",
    "townshipNameMm": "ဆမီး",
    "longitude": 93.09649,
    "latitude": 21.29333,
    "postalCode": "03700"
  },
  {
    "id": 111,
    "regionCode": "MMR004",
    "districtCode": "MMR004D001",
    "townshipCode": "MMR004004702",
    "townshipNameEn": "Khaikam",
    "townshipNameMm": "ခိုင်ကမ်း",
    "longitude": 93.9551,
    "latitude": 23.2175,
    "postalCode": "03640"
  },
  {
    "id": 112,
    "regionCode": "MMR004",
    "districtCode": "MMR004D001",
    "townshipCode": "MMR004004701",
    "townshipNameEn": "Tedim",
    "townshipNameMm": "တီးတိန်",
    "longitude": 93.65619,
    "latitude": 23.37058,
    "postalCode": "03040"
  },
  {
    "id": 113,
    "regionCode": "MMR004",
    "districtCode": "MMR004D003",
    "townshipCode": "MMR004003702",
    "townshipNameEn": "Hnaring",
    "townshipNameMm": "နှာဟရိန်",
    "longitude": 93.4361,
    "latitude": 22.1898,
    "postalCode": "03610"
  },
  {
    "id": 114,
    "regionCode": "MMR004",
    "districtCode": "MMR004D003",
    "townshipCode": "MMR004003701",
    "townshipNameEn": "Thantlang",
    "townshipNameMm": "ထန်တလန်",
    "longitude": 93.4278,
    "latitude": 22.69843,
    "postalCode": "03020"
  },
  {
    "id": 115,
    "regionCode": "MMR004",
    "districtCode": "MMR004D001",
    "townshipCode": "MMR004005702",
    "townshipNameEn": "Cikha",
    "townshipNameMm": "ကျီခါး",
    "longitude": 93.53347,
    "latitude": 23.88976,
    "postalCode": "03650"
  },
  {
    "id": 116,
    "regionCode": "MMR004",
    "districtCode": "MMR004D001",
    "townshipCode": "MMR004005701",
    "townshipNameEn": "Tonzang",
    "townshipNameMm": "တွန်းဇန်",
    "longitude": 93.69175,
    "latitude": 23.60306,
    "postalCode": "03050"
  },
  {
    "id": 117,
    "regionCode": "MMR001",
    "districtCode": "MMR001D003",
    "townshipCode": "MMR001010701",
    "townshipNameEn": "Bhamo",
    "townshipNameMm": "ဗန်းမော်",
    "longitude": 97.23441,
    "latitude": 24.25493,
    "postalCode": "01130"
  },
  {
    "id": 118,
    "regionCode": "MMR001",
    "districtCode": "MMR001D001",
    "townshipCode": "MMR001005701",
    "townshipNameEn": "Chipwi",
    "townshipNameMm": "ချီဖွေ",
    "longitude": 98.12976,
    "latitude": 25.88635,
    "postalCode": "01070"
  },
  {
    "id": 119,
    "regionCode": "MMR001",
    "districtCode": "MMR001D001",
    "townshipCode": "MMR001005702",
    "townshipNameEn": "Pang War",
    "townshipNameMm": "ပန်ဝါ",
    "longitude": 98.37863,
    "latitude": 25.59866,
    "postalCode": "01620"
  },
  {
    "id": 120,
    "regionCode": "MMR001",
    "districtCode": "MMR001D002",
    "townshipCode": "MMR001009701",
    "townshipNameEn": "Hpakant",
    "townshipNameMm": "ဖားကန့်",
    "longitude": 96.31212,
    "latitude": 25.6128,
    "postalCode": "01160"
  },
  {
    "id": 121,
    "regionCode": "MMR001",
    "districtCode": "MMR001D002",
    "townshipCode": "MMR001009702",
    "townshipNameEn": "Kamaing",
    "townshipNameMm": "ကာမိုင်း",
    "longitude": 96.71153,
    "latitude": 25.5226,
    "postalCode": "01740"
  },
  {
    "id": 122,
    "regionCode": "MMR001",
    "districtCode": "MMR001D001",
    "townshipCode": "MMR001003701",
    "townshipNameEn": "Injangyang",
    "townshipNameMm": "အင်ဂျန်းယန်",
    "longitude": 97.72671,
    "latitude": 25.82991,
    "postalCode": "01020"
  },
  {
    "id": 123,
    "regionCode": "MMR001",
    "districtCode": "MMR001D004",
    "townshipCode": "MMR001018701",
    "townshipNameEn": "Khaunglanhpu",
    "townshipNameMm": "ခေါင်လန်ဖူး",
    "longitude": 98.36034,
    "latitude": 27.06043,
    "postalCode": "01180"
  },
  {
    "id": 124,
    "regionCode": "MMR001",
    "districtCode": "MMR001D004",
    "townshipCode": "MMR001016701",
    "townshipNameEn": "Machanbaw",
    "townshipNameMm": "မချမ်းဘော",
    "longitude": 97.58937,
    "latitude": 27.28395,
    "postalCode": "01040"
  },
  {
    "id": 125,
    "regionCode": "MMR001",
    "districtCode": "MMR001D003",
    "townshipCode": "MMR001013701",
    "townshipNameEn": "Mansi",
    "townshipNameMm": "မံစီ",
    "longitude": 97.29311,
    "latitude": 24.11962,
    "postalCode": "01140"
  },
  {
    "id": 126,
    "regionCode": "MMR001",
    "districtCode": "MMR001D002",
    "townshipCode": "MMR001008701",
    "townshipNameEn": "Mogaung",
    "townshipNameMm": "မိုးကောင်း",
    "longitude": 96.94038,
    "latitude": 25.30274,
    "postalCode": "01100"
  },
  {
    "id": 127,
    "regionCode": "MMR001",
    "districtCode": "MMR001D002",
    "townshipCode": "MMR001008702",
    "townshipNameEn": "Nammatee",
    "townshipNameMm": "နမ္မတီး",
    "longitude": 97.00896,
    "latitude": 25.37835,
    "postalCode": "01660"
  },
  {
    "id": 128,
    "regionCode": "MMR001",
    "districtCode": "MMR001D002",
    "townshipCode": "MMR001007702",
    "townshipNameEn": "Hopin",
    "townshipNameMm": "ဟိုပင်",
    "longitude": 96.53019,
    "latitude": 24.99183,
    "postalCode": "01670"
  },
  {
    "id": 129,
    "regionCode": "MMR001",
    "districtCode": "MMR001D002",
    "townshipCode": "MMR001007703",
    "townshipNameEn": "Inn Taw Gyi",
    "townshipNameMm": "အင်းတော်ကြီး",
    "longitude": 96.2876,
    "latitude": 25.0929,
    "postalCode": "01680"
  },
  {
    "id": 130,
    "regionCode": "MMR001",
    "districtCode": "MMR001D002",
    "townshipCode": "MMR001007701",
    "townshipNameEn": "Mohnyin",
    "townshipNameMm": "မိုးညှင်း",
    "longitude": 96.36493,
    "latitude": 24.77711,
    "postalCode": "01110"
  },
  {
    "id": 131,
    "regionCode": "MMR001",
    "districtCode": "MMR001D002",
    "townshipCode": "MMR001007705",
    "townshipNameEn": "Nam Mar",
    "townshipNameMm": "နန်းမား",
    "longitude": 96.43625,
    "latitude": 24.87399,
    "postalCode": "01700"
  },
  {
    "id": 132,
    "regionCode": "MMR001",
    "districtCode": "MMR001D002",
    "townshipCode": "MMR001007704",
    "townshipNameEn": "Nam Mun",
    "townshipNameMm": "နန့်မွန်း",
    "longitude": 96.3548,
    "latitude": 25.0047,
    "postalCode": "01690"
  },
  {
    "id": 133,
    "regionCode": "MMR001",
    "districtCode": "MMR001D003",
    "townshipCode": "MMR001012703",
    "townshipNameEn": "Dawthponeyan",
    "townshipNameMm": "ဒေါ့ဖုန်းယန်",
    "longitude": 97.46127,
    "latitude": 24.61398,
    "postalCode": "01730"
  },
  {
    "id": 134,
    "regionCode": "MMR001",
    "districtCode": "MMR001D003",
    "townshipCode": "MMR001012702",
    "townshipNameEn": "Lwegel",
    "townshipNameMm": "လွယ်ဂျယ်",
    "longitude": 97.72077,
    "latitude": 24.19932,
    "postalCode": "01720"
  },
  {
    "id": 135,
    "regionCode": "MMR001",
    "districtCode": "MMR001D003",
    "townshipCode": "MMR001012701",
    "townshipNameEn": "Momauk",
    "townshipNameMm": "မိုးမောက်",
    "longitude": 97.34653,
    "latitude": 24.25095,
    "postalCode": "01150"
  },
  {
    "id": 136,
    "regionCode": "MMR001",
    "districtCode": "MMR001D001",
    "townshipCode": "MMR001001701",
    "townshipNameEn": "Myitkyina",
    "townshipNameMm": "မြစ်ကြီးနား",
    "longitude": 97.39036,
    "latitude": 25.38749,
    "postalCode": "01010"
  },
  {
    "id": 137,
    "regionCode": "MMR001",
    "districtCode": "MMR001D001",
    "townshipCode": "MMR001001702",
    "townshipNameEn": "Sinbo",
    "townshipNameMm": "ဆင်ဘို",
    "longitude": 97.03917,
    "latitude": 24.77923,
    "postalCode": "01600"
  },
  {
    "id": 138,
    "regionCode": "MMR001",
    "districtCode": "MMR001D004",
    "townshipCode": "MMR001017701",
    "townshipNameEn": "Nawngmun",
    "townshipNameMm": "နောင်မွန်း",
    "longitude": 97.81785,
    "latitude": 27.50532,
    "postalCode": "01030"
  },
  {
    "id": 139,
    "regionCode": "MMR001",
    "districtCode": "MMR001D004",
    "townshipCode": "MMR001017702",
    "townshipNameEn": "Pannandin",
    "townshipNameMm": "ပန်နန်းဒင်",
    "longitude": 97.87662,
    "latitude": 27.7281,
    "postalCode": "01610"
  },
  {
    "id": 140,
    "regionCode": "MMR001",
    "districtCode": "MMR001D004",
    "townshipCode": "MMR001014701",
    "townshipNameEn": "Puta-O",
    "townshipNameMm": "ပူတာအို",
    "longitude": 97.4159,
    "latitude": 27.29934,
    "postalCode": "01050"
  },
  {
    "id": 141,
    "regionCode": "MMR001",
    "districtCode": "MMR001D003",
    "townshipCode": "MMR001011702",
    "townshipNameEn": "Myo Hla",
    "townshipNameMm": "မြို့လှ",
    "longitude": 96.65522,
    "latitude": 24.47856,
    "postalCode": "01710"
  },
  {
    "id": 142,
    "regionCode": "MMR001",
    "districtCode": "MMR001D003",
    "townshipCode": "MMR001011701",
    "townshipNameEn": "Shwegu",
    "townshipNameMm": "ရွှေကူ",
    "longitude": 96.80606,
    "latitude": 24.20695,
    "postalCode": "01120"
  },
  {
    "id": 143,
    "regionCode": "MMR001",
    "districtCode": "MMR001D004",
    "townshipCode": "MMR001015701",
    "townshipNameEn": "Sumprabum",
    "townshipNameMm": "ဆွမ်ပရာဘွမ်",
    "longitude": 97.5677,
    "latitude": 26.54373,
    "postalCode": "01060"
  },
  {
    "id": 144,
    "regionCode": "MMR001",
    "districtCode": "MMR001D001",
    "townshipCode": "MMR001004702",
    "townshipNameEn": "Shin Bway Yang",
    "townshipNameMm": "ရှင်ဗွေယန်",
    "longitude": 96.2094,
    "latitude": 26.69478,
    "postalCode": "01650"
  },
  {
    "id": 145,
    "regionCode": "MMR001",
    "districtCode": "MMR001D001",
    "townshipCode": "MMR001004701",
    "townshipNameEn": "Tanai",
    "townshipNameMm": "တနိုင်း",
    "longitude": 96.71655,
    "latitude": 26.35797,
    "postalCode": "01090"
  },
  {
    "id": 146,
    "regionCode": "MMR001",
    "districtCode": "MMR001D001",
    "townshipCode": "MMR001006701",
    "townshipNameEn": "Tsawlaw",
    "townshipNameMm": "ဆော့လော်",
    "longitude": 98.27049,
    "latitude": 26.15419,
    "postalCode": "01170"
  },
  {
    "id": 147,
    "regionCode": "MMR001",
    "districtCode": "MMR001D001",
    "townshipCode": "MMR001002703",
    "townshipNameEn": "Kan Paik Ti",
    "townshipNameMm": "ကန်ပိုက်တီ",
    "longitude": 98.11739,
    "latitude": 25.40319,
    "postalCode": "01640"
  },
  {
    "id": 148,
    "regionCode": "MMR001",
    "districtCode": "MMR001D001",
    "townshipCode": "MMR001002702",
    "townshipNameEn": "Sadung",
    "townshipNameMm": "ဆဒုံး",
    "longitude": 97.89996,
    "latitude": 25.39709,
    "postalCode": "01630"
  },
  {
    "id": 149,
    "regionCode": "MMR001",
    "districtCode": "MMR001D001",
    "townshipCode": "MMR001002701",
    "townshipNameEn": "Waingmaw",
    "townshipNameMm": "ဝိုင်းမော်",
    "longitude": 97.44281,
    "latitude": 25.35099,
    "postalCode": "01080"
  },
  {
    "id": 150,
    "regionCode": "MMR002",
    "districtCode": "MMR002D002",
    "townshipCode": "MMR002005701",
    "townshipNameEn": "Bawlake",
    "townshipNameMm": "ဘောလခဲ",
    "longitude": 97.34284,
    "latitude": 19.17256,
    "postalCode": "09040"
  },
  {
    "id": 151,
    "regionCode": "MMR002",
    "districtCode": "MMR002D002",
    "townshipCode": "MMR002005702",
    "townshipNameEn": "Ywarthit",
    "townshipNameMm": "ရွာသစ်",
    "longitude": 97.4995,
    "latitude": 19.16673,
    "postalCode": "09620"
  },
  {
    "id": 152,
    "regionCode": "MMR002",
    "districtCode": "MMR002D001",
    "townshipCode": "MMR002002701",
    "townshipNameEn": "Demoso",
    "townshipNameMm": "ဒီးမော့ဆို",
    "longitude": 97.15881,
    "latitude": 19.53832,
    "postalCode": "09020"
  },
  {
    "id": 153,
    "regionCode": "MMR002",
    "districtCode": "MMR002D001",
    "townshipCode": "MMR002002702",
    "townshipNameEn": "Nan Mei Khon",
    "townshipNameMm": "နန်းမယ်ခုံ",
    "longitude": 97.1091,
    "latitude": 19.6696,
    "postalCode": "09610"
  },
  {
    "id": 154,
    "regionCode": "MMR002",
    "districtCode": "MMR002D002",
    "townshipCode": "MMR002006701",
    "townshipNameEn": "Hpasawng",
    "townshipNameMm": "ဖားဆောင်း",
    "longitude": 97.31592,
    "latitude": 18.87063,
    "postalCode": "09050"
  },
  {
    "id": 155,
    "regionCode": "MMR002",
    "districtCode": "MMR002D001",
    "townshipCode": "MMR002003701",
    "townshipNameEn": "Hpruso",
    "townshipNameMm": "ဖရူဆို",
    "longitude": 97.12799,
    "latitude": 19.41387,
    "postalCode": "09030"
  },
  {
    "id": 156,
    "regionCode": "MMR002",
    "districtCode": "MMR002D001",
    "townshipCode": "MMR002001701",
    "townshipNameEn": "Loikaw",
    "townshipNameMm": "လွိုင်ကော်",
    "longitude": 97.20993,
    "latitude": 19.67424,
    "postalCode": "09010"
  },
  {
    "id": 157,
    "regionCode": "MMR002",
    "districtCode": "MMR002D001",
    "townshipCode": "MMR002001702",
    "townshipNameEn": "Loilen Lay",
    "townshipNameMm": "လွိုင်လင်လေး",
    "longitude": 97.2318,
    "latitude": 19.8777,
    "postalCode": "09600"
  },
  {
    "id": 158,
    "regionCode": "MMR002",
    "districtCode": "MMR002D002",
    "townshipCode": "MMR002007701",
    "townshipNameEn": "Mese",
    "townshipNameMm": "မယ်စဲ",
    "longitude": 97.66277,
    "latitude": 18.67246,
    "postalCode": "09060"
  },
  {
    "id": 159,
    "regionCode": "MMR002",
    "districtCode": "MMR002D001",
    "townshipCode": "MMR002004701",
    "townshipNameEn": "Shadaw",
    "townshipNameMm": "ရှားတော",
    "longitude": 97.52073,
    "latitude": 19.63174,
    "postalCode": "09070"
  },
  {
    "id": 160,
    "regionCode": "MMR003",
    "districtCode": "MMR003D001",
    "townshipCode": "MMR003002701",
    "townshipNameEn": "Hlaingbwe",
    "townshipNameMm": "လှိုင်းဘွဲ့",
    "longitude": 97.81871,
    "latitude": 17.12574,
    "postalCode": "13040"
  },
  {
    "id": 161,
    "regionCode": "MMR003",
    "districtCode": "MMR003D001",
    "townshipCode": "MMR003002702",
    "townshipNameEn": "Paingkyon",
    "townshipNameMm": "ပိုင်ကျုံ",
    "longitude": 97.98597,
    "latitude": 17.0217,
    "postalCode": "13640"
  },
  {
    "id": 162,
    "regionCode": "MMR003",
    "districtCode": "MMR003D001",
    "townshipCode": "MMR003002703",
    "townshipNameEn": "Shan Ywar Thit",
    "townshipNameMm": "ရှမ်းရွာသစ်",
    "longitude": 97.88778,
    "latitude": 17.42438,
    "postalCode": "13650"
  },
  {
    "id": 163,
    "regionCode": "MMR003",
    "districtCode": "MMR003D001",
    "townshipCode": "MMR003001701",
    "townshipNameEn": "Hpa-An",
    "townshipNameMm": "ဘားအံ",
    "longitude": 97.63691,
    "latitude": 16.88076,
    "postalCode": "13010"
  },
  {
    "id": 164,
    "regionCode": "MMR003",
    "districtCode": "MMR003D004",
    "townshipCode": "MMR003003701",
    "townshipNameEn": "Hpapun",
    "townshipNameMm": "ဖာပွန်",
    "longitude": 97.44321,
    "latitude": 18.06306,
    "postalCode": "13030"
  },
  {
    "id": 165,
    "regionCode": "MMR003",
    "districtCode": "MMR003D004",
    "townshipCode": "MMR003003702",
    "townshipNameEn": "Kamarmaung",
    "townshipNameMm": "ကမမောင်း",
    "longitude": 97.6529,
    "latitude": 17.34688,
    "postalCode": "13630"
  },
  {
    "id": 166,
    "regionCode": "MMR003",
    "districtCode": "MMR003D003",
    "townshipCode": "MMR003006701",
    "townshipNameEn": "Kawkareik",
    "townshipNameMm": "ကော့ကရိတ်",
    "longitude": 98.23996,
    "latitude": 16.55553,
    "postalCode": "13060"
  },
  {
    "id": 167,
    "regionCode": "MMR003",
    "districtCode": "MMR003D003",
    "townshipCode": "MMR003006702",
    "townshipNameEn": "Kyondoe",
    "townshipNameMm": "ကျုံဒိုး",
    "longitude": 98.04353,
    "latitude": 16.59446,
    "postalCode": "13680"
  },
  {
    "id": 168,
    "regionCode": "MMR003",
    "districtCode": "MMR003D003",
    "townshipCode": "MMR003007702",
    "townshipNameEn": "Hpayarthonesu",
    "townshipNameMm": "ဘုရားသုံးဆူ",
    "longitude": 98.37808,
    "latitude": 15.30444,
    "postalCode": "13690"
  },
  {
    "id": 169,
    "regionCode": "MMR003",
    "districtCode": "MMR003D003",
    "townshipCode": "MMR003007703",
    "townshipNameEn": "Kyaikdon",
    "townshipNameMm": "ကျိုက်ဒုံ",
    "longitude": 98.39268,
    "latitude": 16.00253,
    "postalCode": "13700"
  },
  {
    "id": 170,
    "regionCode": "MMR003",
    "districtCode": "MMR003D003",
    "townshipCode": "MMR003007701",
    "townshipNameEn": "Kyainseikgyi",
    "townshipNameMm": "ကြာအင်းဆိပ်ကြီး",
    "longitude": 98.12322,
    "latitude": 16.04079,
    "postalCode": "13070"
  },
  {
    "id": 171,
    "regionCode": "MMR003",
    "districtCode": "MMR003D002",
    "townshipCode": "MMR003005701",
    "townshipNameEn": "Myawaddy",
    "townshipNameMm": "မြဝတီ",
    "longitude": 98.51304,
    "latitude": 16.68868,
    "postalCode": "13050"
  },
  {
    "id": 172,
    "regionCode": "MMR003",
    "districtCode": "MMR003D002",
    "townshipCode": "MMR003005702",
    "townshipNameEn": "Su Ka Li",
    "townshipNameMm": "စုကလိ",
    "longitude": 98.59621,
    "latitude": 16.15439,
    "postalCode": "13660"
  },
  {
    "id": 173,
    "regionCode": "MMR003",
    "districtCode": "MMR003D002",
    "townshipCode": "MMR003005703",
    "townshipNameEn": "Waw Lay Myaing (Waw Lay)",
    "townshipNameMm": "",
    "longitude": 98.71324,
    "latitude": 16.29392,
    "postalCode": "13670"
  },
  {
    "id": 174,
    "regionCode": "MMR003",
    "districtCode": "MMR003D001",
    "townshipCode": "MMR003004704",
    "townshipNameEn": "Baw Ga Li",
    "townshipNameMm": "ဘောဂလိ",
    "longitude": 96.78565,
    "latitude": 18.91451,
    "postalCode": "13620"
  },
  {
    "id": 175,
    "regionCode": "MMR003",
    "districtCode": "MMR003D001",
    "townshipCode": "MMR003004703",
    "townshipNameEn": "Leik Tho",
    "townshipNameMm": "လိပ်သို",
    "longitude": 96.58097,
    "latitude": 19.22235,
    "postalCode": "13610"
  },
  {
    "id": 176,
    "regionCode": "MMR003",
    "districtCode": "MMR003D001",
    "townshipCode": "MMR003004702",
    "townshipNameEn": "Thandaung",
    "townshipNameMm": "သံတောင်",
    "longitude": 96.58266,
    "latitude": 19.02175,
    "postalCode": "13600"
  },
  {
    "id": 177,
    "regionCode": "MMR003",
    "districtCode": "MMR003D001",
    "townshipCode": "MMR003004701",
    "townshipNameEn": "Thandaunggyi",
    "townshipNameMm": "သံတောင်ကြီး",
    "longitude": 96.67547,
    "latitude": 19.07339,
    "postalCode": "13020"
  },
  {
    "id": 178,
    "regionCode": "MMR009",
    "districtCode": "MMR009D003",
    "townshipCode": "MMR009016701",
    "townshipNameEn": "Aunglan",
    "townshipNameMm": "အောင်လံ",
    "longitude": 95.21684,
    "latitude": 19.35855,
    "postalCode": "04150"
  },
  {
    "id": 179,
    "regionCode": "MMR009",
    "districtCode": "MMR009D001",
    "townshipCode": "MMR009003701",
    "townshipNameEn": "Chauk",
    "townshipNameMm": "ချောက်",
    "longitude": 94.81829,
    "latitude": 20.89098,
    "postalCode": "04170"
  },
  {
    "id": 180,
    "regionCode": "MMR009",
    "districtCode": "MMR009D001",
    "townshipCode": "MMR009003702",
    "townshipNameEn": "Sa Lay",
    "townshipNameMm": "စလေ",
    "longitude": 94.7424,
    "latitude": 20.8338,
    "postalCode": "04620"
  },
  {
    "id": 181,
    "regionCode": "MMR009",
    "districtCode": "MMR009D005",
    "townshipCode": "MMR009023701",
    "townshipNameEn": "Gangaw",
    "townshipNameMm": "ဂန့်ဂေါ",
    "longitude": 94.13582,
    "latitude": 22.17421,
    "postalCode": "04210"
  },
  {
    "id": 182,
    "regionCode": "MMR009",
    "districtCode": "MMR009D005",
    "townshipCode": "MMR009023702",
    "townshipNameEn": "Kyaw",
    "townshipNameMm": "ကျော",
    "longitude": 94.35789,
    "latitude": 21.92737,
    "postalCode": "04650"
  },
  {
    "id": 183,
    "regionCode": "MMR009",
    "districtCode": "MMR009D003",
    "townshipCode": "MMR009015701",
    "townshipNameEn": "Kamma",
    "townshipNameMm": "ကံမ",
    "longitude": 95.09594,
    "latitude": 19.02897,
    "postalCode": "04110"
  },
  {
    "id": 184,
    "regionCode": "MMR009",
    "districtCode": "MMR009D001",
    "townshipCode": "MMR009001701",
    "townshipNameEn": "Magway",
    "townshipNameMm": "မကွေး",
    "longitude": 94.92696,
    "latitude": 20.14027,
    "postalCode": "04010"
  },
  {
    "id": 185,
    "regionCode": "MMR009",
    "districtCode": "MMR009D002",
    "townshipCode": "MMR009007701",
    "townshipNameEn": "Minbu",
    "townshipNameMm": "မင်းဘူး",
    "longitude": 94.87518,
    "latitude": 20.17161,
    "postalCode": "04020"
  },
  {
    "id": 186,
    "regionCode": "MMR009",
    "districtCode": "MMR009D002",
    "townshipCode": "MMR009007702",
    "townshipNameEn": "Saku",
    "townshipNameMm": "စကု",
    "longitude": 94.76831,
    "latitude": 20.22609,
    "postalCode": "04600"
  },
  {
    "id": 187,
    "regionCode": "MMR009",
    "districtCode": "MMR009D003",
    "townshipCode": "MMR009014701",
    "townshipNameEn": "Mindon",
    "townshipNameMm": "မင်းတုန်း",
    "longitude": 94.73233,
    "latitude": 19.35131,
    "postalCode": "04100"
  },
  {
    "id": 188,
    "regionCode": "MMR009",
    "districtCode": "MMR009D003",
    "townshipCode": "MMR009013701",
    "townshipNameEn": "Minhla",
    "townshipNameMm": "မင်းလှ",
    "longitude": 95.0367,
    "latitude": 19.96559,
    "postalCode": "04070"
  },
  {
    "id": 189,
    "regionCode": "MMR009",
    "districtCode": "MMR009D004",
    "townshipCode": "MMR009020701",
    "townshipNameEn": "Myaing",
    "townshipNameMm": "မြိုင်",
    "longitude": 94.85432,
    "latitude": 21.61256,
    "postalCode": "04190"
  },
  {
    "id": 190,
    "regionCode": "MMR009",
    "districtCode": "MMR009D001",
    "townshipCode": "MMR009005701",
    "townshipNameEn": "Myothit",
    "townshipNameMm": "မြို့သစ်",
    "longitude": 95.44692,
    "latitude": 20.19919,
    "postalCode": "04130"
  },
  {
    "id": 191,
    "regionCode": "MMR009",
    "districtCode": "MMR009D001",
    "townshipCode": "MMR009006701",
    "townshipNameEn": "Natmauk",
    "townshipNameMm": "နတ်မောက်",
    "longitude": 95.39966,
    "latitude": 20.35339,
    "postalCode": "04120"
  },
  {
    "id": 192,
    "regionCode": "MMR009",
    "districtCode": "MMR009D002",
    "townshipCode": "MMR009009701",
    "townshipNameEn": "Ngape",
    "townshipNameMm": "ငဖဲ",
    "longitude": 94.46767,
    "latitude": 20.07538,
    "postalCode": "04060"
  },
  {
    "id": 193,
    "regionCode": "MMR009",
    "districtCode": "MMR009D004",
    "townshipCode": "MMR009018702",
    "townshipNameEn": "Kamma",
    "townshipNameMm": "ကမ္မ",
    "longitude": 94.81558,
    "latitude": 21.38358,
    "postalCode": "04630"
  },
  {
    "id": 194,
    "regionCode": "MMR009",
    "districtCode": "MMR009D004",
    "townshipCode": "MMR009018703",
    "townshipNameEn": "Myit Chay",
    "townshipNameMm": "မြစ်ခြေ",
    "longitude": 94.8511,
    "latitude": 21.2454,
    "postalCode": "04640"
  },
  {
    "id": 195,
    "regionCode": "MMR009",
    "districtCode": "MMR009D004",
    "townshipCode": "MMR009018701",
    "townshipNameEn": "Pakokku",
    "townshipNameMm": "ပခုက္ကူ",
    "longitude": 95.08227,
    "latitude": 21.335,
    "postalCode": "04200"
  },
  {
    "id": 196,
    "regionCode": "MMR009",
    "districtCode": "MMR009D004",
    "townshipCode": "MMR009021701",
    "townshipNameEn": "Pauk",
    "townshipNameMm": "ပေါက်",
    "longitude": 94.47374,
    "latitude": 21.45215,
    "postalCode": "04230"
  },
  {
    "id": 197,
    "regionCode": "MMR009",
    "districtCode": "MMR009D002",
    "townshipCode": "MMR009008701",
    "townshipNameEn": "Pwintbyu",
    "townshipNameMm": "ပွင့်ဖြူ",
    "longitude": 94.66933,
    "latitude": 20.36334,
    "postalCode": "04030"
  },
  {
    "id": 198,
    "regionCode": "MMR009",
    "districtCode": "MMR009D002",
    "townshipCode": "MMR009010701",
    "townshipNameEn": "Salin",
    "townshipNameMm": "စလင်း",
    "longitude": 94.65936,
    "latitude": 20.5772,
    "postalCode": "04040"
  },
  {
    "id": 199,
    "regionCode": "MMR009",
    "districtCode": "MMR009D002",
    "townshipCode": "MMR009010702",
    "townshipNameEn": "Sinphyukyun",
    "townshipNameMm": "ဆင်ဖြူကျွန်း",
    "longitude": 94.6929,
    "latitude": 20.6642,
    "postalCode": "04610"
  },
  {
    "id": 200,
    "regionCode": "MMR009",
    "districtCode": "MMR009D005",
    "townshipCode": "MMR009025702",
    "townshipNameEn": "Kyaukhtu",
    "townshipNameMm": "ကျောက်ထု",
    "longitude": 94.136,
    "latitude": 21.406,
    "postalCode": "04660"
  },
  {
    "id": 201,
    "regionCode": "MMR009",
    "districtCode": "MMR009D005",
    "townshipCode": "MMR009025701",
    "townshipNameEn": "Saw",
    "townshipNameMm": "ဆော",
    "longitude": 94.15466,
    "latitude": 21.15224,
    "postalCode": "04240"
  },
  {
    "id": 202,
    "regionCode": "MMR009",
    "districtCode": "MMR009D004",
    "townshipCode": "MMR009022701",
    "townshipNameEn": "Seikphyu",
    "townshipNameMm": "ဆိပ်ဖြူ",
    "longitude": 94.79243,
    "latitude": 20.90651,
    "postalCode": "04250"
  },
  {
    "id": 203,
    "regionCode": "MMR009",
    "districtCode": "MMR009D002",
    "townshipCode": "MMR009011701",
    "townshipNameEn": "Sidoktaya",
    "townshipNameMm": "စေတုတ္ထရာ",
    "longitude": 94.24559,
    "latitude": 20.4466,
    "postalCode": "04050"
  },
  {
    "id": 204,
    "regionCode": "MMR009",
    "districtCode": "MMR009D003",
    "townshipCode": "MMR009017701",
    "townshipNameEn": "Sinbaungwe",
    "townshipNameMm": "ဆင်ပေါင်ဝဲ",
    "longitude": 95.16186,
    "latitude": 19.72292,
    "postalCode": "04080"
  },
  {
    "id": 205,
    "regionCode": "MMR009",
    "districtCode": "MMR009D001",
    "townshipCode": "MMR009004701",
    "townshipNameEn": "Taungdwingyi",
    "townshipNameMm": "တောင်တွင်းကြီး",
    "longitude": 95.54614,
    "latitude": 20.00187,
    "postalCode": "04140"
  },
  {
    "id": 206,
    "regionCode": "MMR009",
    "districtCode": "MMR009D003",
    "townshipCode": "MMR009012701",
    "townshipNameEn": "Thayet",
    "townshipNameMm": "သရက်",
    "longitude": 95.17716,
    "latitude": 19.3215,
    "postalCode": "04090"
  },
  {
    "id": 207,
    "regionCode": "MMR009",
    "districtCode": "MMR009D005",
    "townshipCode": "MMR009024701",
    "townshipNameEn": "Tilin",
    "townshipNameMm": "ထီးလင်း",
    "longitude": 94.09278,
    "latitude": 21.69636,
    "postalCode": "04220"
  },
  {
    "id": 208,
    "regionCode": "MMR009",
    "districtCode": "MMR009D001",
    "townshipCode": "MMR009002701",
    "townshipNameEn": "Yenangyaung",
    "townshipNameMm": "ရေနံချောင်း",
    "longitude": 94.8731,
    "latitude": 20.45837,
    "postalCode": "04160"
  },
  {
    "id": 209,
    "regionCode": "MMR009",
    "districtCode": "MMR009D004",
    "townshipCode": "MMR009019701",
    "townshipNameEn": "Yesagyo",
    "townshipNameMm": "ရေစကြို",
    "longitude": 95.2453,
    "latitude": 21.63388,
    "postalCode": "04180"
  },
  {
    "id": 210,
    "regionCode": "MMR010",
    "districtCode": "MMR010D001",
    "townshipCode": "MMR010006701",
    "townshipNameEn": "Amarapura",
    "townshipNameMm": "အမရပူရ",
    "longitude": 96.04948,
    "latitude": 21.90314,
    "postalCode": "05060"
  },
  {
    "id": 211,
    "regionCode": "MMR010",
    "districtCode": "MMR010D001",
    "townshipCode": "MMR010006702",
    "townshipNameEn": "Myitnge",
    "townshipNameMm": "မြစ်ငယ်",
    "longitude": 96.06856,
    "latitude": 21.85418,
    "postalCode": "05600"
  },
  {
    "id": 212,
    "regionCode": "MMR010",
    "districtCode": "MMR010D001",
    "townshipCode": "MMR010001701",
    "townshipNameEn": "Aungmyaythazan",
    "townshipNameMm": "အောင်မြေသာဇံ",
    "longitude": 96.09686,
    "latitude": 21.99321,
    "postalCode": "05010"
  },
  {
    "id": 213,
    "regionCode": "MMR010",
    "districtCode": "MMR010D001",
    "townshipCode": "MMR010002701",
    "townshipNameEn": "Chanayethazan",
    "townshipNameMm": "ချမ်းအေးသာဇံ",
    "longitude": 96.0946,
    "latitude": 21.97535,
    "postalCode": "05020"
  },
  {
    "id": 214,
    "regionCode": "MMR010",
    "districtCode": "MMR010D001",
    "townshipCode": "MMR010004701",
    "townshipNameEn": "Chanmyathazi",
    "townshipNameMm": "ချမ်းမြသာစည်",
    "longitude": 96.09584,
    "latitude": 21.9394,
    "postalCode": "05040"
  },
  {
    "id": 215,
    "regionCode": "MMR010",
    "districtCode": "MMR010D005",
    "townshipCode": "MMR010020701",
    "townshipNameEn": "Kyaukpadaung",
    "townshipNameMm": "ကျောက်ပန်းတောင်း",
    "longitude": 95.13218,
    "latitude": 20.84248,
    "postalCode": "05240"
  },
  {
    "id": 216,
    "regionCode": "MMR010",
    "districtCode": "MMR010D003",
    "townshipCode": "MMR010013701",
    "townshipNameEn": "Kyaukse",
    "townshipNameMm": "ကျောက်ဆည်",
    "longitude": 96.13033,
    "latitude": 21.61325,
    "postalCode": "05150"
  },
  {
    "id": 217,
    "regionCode": "MMR010",
    "districtCode": "MMR010D002",
    "townshipCode": "MMR010009701",
    "townshipNameEn": "Madaya",
    "townshipNameMm": "မတ္တရာ",
    "longitude": 96.10639,
    "latitude": 22.21036,
    "postalCode": "05120"
  },
  {
    "id": 218,
    "regionCode": "MMR010",
    "districtCode": "MMR010D001",
    "townshipCode": "MMR010003701",
    "townshipNameEn": "Mahaaungmyay",
    "townshipNameMm": "မဟာအောင်မြေ",
    "longitude": 96.0946,
    "latitude": 21.97535,
    "postalCode": "05030"
  },
  {
    "id": 219,
    "regionCode": "MMR010",
    "districtCode": "MMR010D007",
    "townshipCode": "MMR010029701",
    "townshipNameEn": "Mahlaing",
    "townshipNameMm": "မလှိုင်",
    "longitude": 95.64698,
    "latitude": 21.09867,
    "postalCode": "05200"
  },
  {
    "id": 220,
    "regionCode": "MMR010",
    "districtCode": "MMR010D007",
    "townshipCode": "MMR010028701",
    "townshipNameEn": "Meiktila",
    "townshipNameMm": "မိတ္ထီလာ",
    "longitude": 95.86311,
    "latitude": 20.88189,
    "postalCode": "05180"
  },
  {
    "id": 221,
    "regionCode": "MMR010",
    "districtCode": "MMR010D002",
    "townshipCode": "MMR010011701",
    "townshipNameEn": "Mogoke",
    "townshipNameMm": "မိုးကုတ်",
    "longitude": 96.5054,
    "latitude": 22.92139,
    "postalCode": "05090"
  },
  {
    "id": 222,
    "regionCode": "MMR010",
    "districtCode": "MMR010D004",
    "townshipCode": "MMR010017701",
    "townshipNameEn": "Myingyan",
    "townshipNameMm": "မြင်းခြံ",
    "longitude": 95.39179,
    "latitude": 21.45745,
    "postalCode": "05250"
  },
  {
    "id": 223,
    "regionCode": "MMR010",
    "districtCode": "MMR010D004",
    "townshipCode": "MMR010017702",
    "townshipNameEn": "Si Mee Khon",
    "townshipNameMm": "ဆီမီးခုံ",
    "longitude": 95.4221,
    "latitude": 21.735,
    "postalCode": "05650"
  },
  {
    "id": 224,
    "regionCode": "MMR010",
    "districtCode": "MMR010D003",
    "townshipCode": "MMR010015702",
    "townshipNameEn": "Ku Me",
    "townshipNameMm": "ကူမဲ",
    "longitude": 96.1603,
    "latitude": 21.3583,
    "postalCode": "05620"
  },
  {
    "id": 225,
    "regionCode": "MMR010",
    "districtCode": "MMR010D003",
    "townshipCode": "MMR010015701",
    "townshipNameEn": "Myittha",
    "townshipNameMm": "မြစ်သား",
    "longitude": 96.13086,
    "latitude": 21.42427,
    "postalCode": "05160"
  },
  {
    "id": 226,
    "regionCode": "MMR010",
    "districtCode": "MMR010D004",
    "townshipCode": "MMR010019701",
    "townshipNameEn": "Natogyi",
    "townshipNameMm": "နွားထိုးကြီး",
    "longitude": 95.6545,
    "latitude": 21.4237,
    "postalCode": "05260"
  },
  {
    "id": 227,
    "regionCode": "MMR010",
    "districtCode": "MMR010D004",
    "townshipCode": "MMR010021701",
    "townshipNameEn": "Ngazun",
    "townshipNameMm": "ငါန်းဇွန်",
    "longitude": 95.68723,
    "latitude": 21.89846,
    "postalCode": "05280"
  },
  {
    "id": 228,
    "regionCode": "MMR010",
    "districtCode": "MMR010D005",
    "townshipCode": "MMR010022702",
    "townshipNameEn": "Bagan",
    "townshipNameMm": "ပုဂံ",
    "longitude": 94.86257,
    "latitude": 21.13197,
    "postalCode": "05630"
  },
  {
    "id": 229,
    "regionCode": "MMR010",
    "districtCode": "MMR010D005",
    "townshipCode": "MMR010022703",
    "townshipNameEn": "Ngathayauk",
    "townshipNameMm": "ငါ့သရောက်",
    "longitude": 95.13772,
    "latitude": 21.15058,
    "postalCode": "05640"
  },
  {
    "id": 230,
    "regionCode": "MMR010",
    "districtCode": "MMR010D005",
    "townshipCode": "MMR010022701",
    "townshipNameEn": "Nyaung-U",
    "townshipNameMm": "ညောင်ဦး",
    "longitude": 94.91011,
    "latitude": 21.19543,
    "postalCode": "05230"
  },
  {
    "id": 231,
    "regionCode": "MMR010",
    "districtCode": "MMR010D001",
    "townshipCode": "MMR010007701",
    "townshipNameEn": "Patheingyi",
    "townshipNameMm": "ပုသိမ်ကြီး",
    "longitude": 96.16465,
    "latitude": 22.00399,
    "postalCode": "05070"
  },
  {
    "id": 232,
    "regionCode": "MMR010",
    "districtCode": "MMR010D006",
    "townshipCode": "MMR010024701",
    "townshipNameEn": "Pyawbwe",
    "townshipNameMm": "ပျော်ဘွယ်",
    "longitude": 96.05094,
    "latitude": 20.59472,
    "postalCode": "05210"
  },
  {
    "id": 233,
    "regionCode": "MMR010",
    "districtCode": "MMR010D001",
    "townshipCode": "MMR010005701",
    "townshipNameEn": "Pyigyitagon",
    "townshipNameMm": "ပြည်ကြီးတံခွန်",
    "longitude": 96.10418,
    "latitude": 21.90196,
    "postalCode": "05050"
  },
  {
    "id": 234,
    "regionCode": "MMR010",
    "districtCode": "MMR010D002",
    "townshipCode": "MMR010008701",
    "townshipNameEn": "Pyinoolwin",
    "townshipNameMm": "ပြင်ဦးလွင်",
    "longitude": 96.45634,
    "latitude": 22.01397,
    "postalCode": "05080"
  },
  {
    "id": 235,
    "regionCode": "MMR010",
    "districtCode": "MMR010D002",
    "townshipCode": "MMR010010701",
    "townshipNameEn": "Singu",
    "townshipNameMm": "စဉ့်ကူး",
    "longitude": 95.99655,
    "latitude": 22.54838,
    "postalCode": "05110"
  },
  {
    "id": 236,
    "regionCode": "MMR010",
    "districtCode": "MMR010D003",
    "townshipCode": "MMR010014701",
    "townshipNameEn": "Sintgaing",
    "townshipNameMm": "စဉ့်ကိုင်",
    "longitude": 96.10611,
    "latitude": 21.73114,
    "postalCode": "05140"
  },
  {
    "id": 237,
    "regionCode": "MMR010",
    "districtCode": "MMR010D003",
    "townshipCode": "MMR010016701",
    "townshipNameEn": "Tada-U",
    "townshipNameMm": "တံတားဦး",
    "longitude": 95.97069,
    "latitude": 21.8151,
    "postalCode": "05130"
  },
  {
    "id": 238,
    "regionCode": "MMR010",
    "districtCode": "MMR010D004",
    "townshipCode": "MMR010018701",
    "townshipNameEn": "Taungtha",
    "townshipNameMm": "တောင်သာ",
    "longitude": 95.44541,
    "latitude": 21.27603,
    "postalCode": "05270"
  },
  {
    "id": 239,
    "regionCode": "MMR010",
    "districtCode": "MMR010D002",
    "townshipCode": "MMR010012702",
    "townshipNameEn": "Takaung",
    "townshipNameMm": "တကောင်း",
    "longitude": 96.01367,
    "latitude": 23.50188,
    "postalCode": "05610"
  },
  {
    "id": 240,
    "regionCode": "MMR010",
    "districtCode": "MMR010D002",
    "townshipCode": "MMR010012701",
    "townshipNameEn": "Thabeikkyin",
    "townshipNameMm": "သပိတ်ကျင်း",
    "longitude": 95.97525,
    "latitude": 22.88593,
    "postalCode": "05100"
  },
  {
    "id": 241,
    "regionCode": "MMR010",
    "districtCode": "MMR010D007",
    "townshipCode": "MMR010030701",
    "townshipNameEn": "Thazi",
    "townshipNameMm": "သာစည်",
    "longitude": 96.05838,
    "latitude": 20.85019,
    "postalCode": "05190"
  },
  {
    "id": 242,
    "regionCode": "MMR010",
    "districtCode": "MMR010D007",
    "townshipCode": "MMR010031701",
    "townshipNameEn": "Wundwin",
    "townshipNameMm": "ဝမ်းတွင်း",
    "longitude": 96.03001,
    "latitude": 21.09691,
    "postalCode": "05170"
  },
  {
    "id": 243,
    "regionCode": "MMR010",
    "districtCode": "MMR010D006",
    "townshipCode": "MMR010023701",
    "townshipNameEn": "Yamethin",
    "townshipNameMm": "ရမည်းသင်း",
    "longitude": 96.13747,
    "latitude": 20.4305,
    "postalCode": "05220"
  },
  {
    "id": 244,
    "regionCode": "MMR011",
    "districtCode": "MMR011D002",
    "townshipCode": "MMR011010701",
    "townshipNameEn": "Bilin",
    "townshipNameMm": "ဘီးလင်း",
    "longitude": 97.23931,
    "latitude": 17.21987,
    "postalCode": "12030"
  },
  {
    "id": 245,
    "regionCode": "MMR011",
    "districtCode": "MMR011D001",
    "townshipCode": "MMR011003701",
    "townshipNameEn": "Chaungzon",
    "townshipNameMm": "ချောင်းဆုံ",
    "longitude": 97.55048,
    "latitude": 16.35125,
    "postalCode": "12060"
  },
  {
    "id": 246,
    "regionCode": "MMR011",
    "districtCode": "MMR011D001",
    "townshipCode": "MMR011002701",
    "townshipNameEn": "Kyaikmaraw",
    "townshipNameMm": "ကျိုက်မရော",
    "longitude": 97.72411,
    "latitude": 16.37045,
    "postalCode": "12070"
  },
  {
    "id": 247,
    "regionCode": "MMR011",
    "districtCode": "MMR011D002",
    "townshipCode": "MMR011009701",
    "townshipNameEn": "Kyaikto",
    "townshipNameMm": "ကျိုက်ထို",
    "longitude": 97.01989,
    "latitude": 17.31156,
    "postalCode": "12020"
  },
  {
    "id": 248,
    "regionCode": "MMR011",
    "districtCode": "MMR011D002",
    "townshipCode": "MMR011009702",
    "townshipNameEn": "Thein Za Yat",
    "townshipNameMm": "သိမ်ဇရပ်",
    "longitude": 96.884,
    "latitude": 17.5137,
    "postalCode": "12600"
  },
  {
    "id": 249,
    "regionCode": "MMR011",
    "districtCode": "MMR011D001",
    "townshipCode": "MMR011001701",
    "townshipNameEn": "Mawlamyine",
    "townshipNameMm": "မော်လမြိုင်",
    "longitude": 97.62593,
    "latitude": 16.48459,
    "postalCode": "12010"
  },
  {
    "id": 250,
    "regionCode": "MMR011",
    "districtCode": "MMR011D001",
    "townshipCode": "MMR011005702",
    "townshipNameEn": "Kamarwet",
    "townshipNameMm": "ကမာ၀က်",
    "longitude": 97.73403,
    "latitude": 16.1409,
    "postalCode": "12630"
  },
  {
    "id": 251,
    "regionCode": "MMR011",
    "districtCode": "MMR011D001",
    "townshipCode": "MMR011005701",
    "townshipNameEn": "Mudon",
    "townshipNameMm": "မုဒုံ",
    "longitude": 97.72478,
    "latitude": 16.25812,
    "postalCode": "12080"
  },
  {
    "id": 252,
    "regionCode": "MMR011",
    "districtCode": "MMR011D002",
    "townshipCode": "MMR011008701",
    "townshipNameEn": "Paung",
    "townshipNameMm": "ပေါင်",
    "longitude": 97.45672,
    "latitude": 16.61679,
    "postalCode": "12050"
  },
  {
    "id": 253,
    "regionCode": "MMR011",
    "districtCode": "MMR011D002",
    "townshipCode": "MMR011008702",
    "townshipNameEn": "Zinkyaik",
    "townshipNameMm": "ဇင်းကျိုက်",
    "longitude": 97.42371,
    "latitude": 16.69655,
    "postalCode": "12620"
  },
  {
    "id": 254,
    "regionCode": "MMR011",
    "districtCode": "MMR011D001",
    "townshipCode": "MMR011004702",
    "townshipNameEn": "Kyaikkhami",
    "townshipNameMm": "ကျိုက္ခမီ",
    "longitude": 97.5675,
    "latitude": 16.08,
    "postalCode": "12640"
  },
  {
    "id": 255,
    "regionCode": "MMR011",
    "districtCode": "MMR011D001",
    "townshipCode": "MMR011004701",
    "townshipNameEn": "Thanbyuzayat",
    "townshipNameMm": "သံဖြူဇရပ်",
    "longitude": 97.7333,
    "latitude": 15.9667,
    "postalCode": "12090"
  },
  {
    "id": 256,
    "regionCode": "MMR011",
    "districtCode": "MMR011D002",
    "townshipCode": "MMR011007701",
    "townshipNameEn": "Thaton",
    "townshipNameMm": "သထုံ",
    "longitude": 97.3678,
    "latitude": 16.9197,
    "postalCode": "12040"
  },
  {
    "id": 257,
    "regionCode": "MMR011",
    "districtCode": "MMR011D002",
    "townshipCode": "MMR011007702",
    "townshipNameEn": "Thuwunnawady",
    "townshipNameMm": "သုဝဏ္ဏဝတီ",
    "longitude": 97.30482,
    "latitude": 17.06022,
    "postalCode": "12610"
  },
  {
    "id": 258,
    "regionCode": "MMR011",
    "districtCode": "MMR011D001",
    "townshipCode": "MMR011006703",
    "townshipNameEn": "Khawzar",
    "townshipNameMm": "ခေါဇာ",
    "longitude": 97.82935,
    "latitude": 15.03752,
    "postalCode": "12660"
  },
  {
    "id": 259,
    "regionCode": "MMR011",
    "districtCode": "MMR011D001",
    "townshipCode": "MMR011006702",
    "townshipNameEn": "Lamaing",
    "townshipNameMm": "လမိုင်း",
    "longitude": 97.83215,
    "latitude": 15.50351,
    "postalCode": "12650"
  },
  {
    "id": 260,
    "regionCode": "MMR011",
    "districtCode": "MMR011D001",
    "townshipCode": "MMR011006701",
    "townshipNameEn": "Ye",
    "townshipNameMm": "ရေး",
    "longitude": 97.84935,
    "latitude": 15.24539,
    "postalCode": "12100"
  },
  {
    "id": 261,
    "regionCode": "MMR018",
    "districtCode": "MMR018D002",
    "townshipCode": "MMR018004701",
    "townshipNameEn": "Det Khi Na Thi Ri",
    "townshipNameMm": "ဒက္ခိဏသီရိ",
    "longitude": 96.0905,
    "latitude": 19.70026,
    "postalCode": "15060"
  },
  {
    "id": 262,
    "regionCode": "MMR018",
    "districtCode": "MMR018D002",
    "townshipCode": "MMR018007701",
    "townshipNameEn": "Lewe",
    "townshipNameMm": "လယ်ဝေး",
    "longitude": 96.11007,
    "latitude": 19.63467,
    "postalCode": "15040"
  },
  {
    "id": 263,
    "regionCode": "MMR018",
    "districtCode": "MMR018D001",
    "townshipCode": "MMR018008701",
    "townshipNameEn": "Oke Ta Ra Thi Ri",
    "townshipNameMm": "ဥတ္တရသီရိ",
    "longitude": 96.043,
    "latitude": 19.891,
    "postalCode": "15080"
  },
  {
    "id": 264,
    "regionCode": "MMR018",
    "districtCode": "MMR018D001",
    "townshipCode": "MMR018005701",
    "townshipNameEn": "Poke Ba Thi Ri",
    "townshipNameMm": "ပုဗ္ဗသီရိ",
    "longitude": 96.18252,
    "latitude": 19.84383,
    "postalCode": "15070"
  },
  {
    "id": 265,
    "regionCode": "MMR018",
    "districtCode": "MMR018D002",
    "townshipCode": "MMR018006701",
    "townshipNameEn": "Pyinmana",
    "townshipNameMm": "ပျဉ်းမနား",
    "longitude": 96.20895,
    "latitude": 19.7361,
    "postalCode": "15020"
  },
  {
    "id": 266,
    "regionCode": "MMR018",
    "districtCode": "MMR018D001",
    "townshipCode": "MMR018003701",
    "townshipNameEn": "Tatkon",
    "townshipNameMm": "တပ်ကုန်း",
    "longitude": 96.20297,
    "latitude": 20.13041,
    "postalCode": "15030"
  },
  {
    "id": 267,
    "regionCode": "MMR018",
    "districtCode": "MMR018D002",
    "townshipCode": "MMR018002701",
    "townshipNameEn": "Za Bu Thi Ri",
    "townshipNameMm": "ဇမ္ဗူသီရိ",
    "longitude": 96.07261,
    "latitude": 19.76867,
    "postalCode": "15010"
  },
  {
    "id": 268,
    "regionCode": "MMR018",
    "districtCode": "MMR018D001",
    "townshipCode": "MMR018001701",
    "townshipNameEn": "Zay Yar Thi Ri",
    "townshipNameMm": "ဇေယျာသီရိ",
    "longitude": 96.309,
    "latitude": 19.862,
    "postalCode": "15050"
  },
  {
    "id": 269,
    "regionCode": "MMR012",
    "districtCode": "MMR012D003",
    "townshipCode": "MMR012014701",
    "townshipNameEn": "Ann",
    "townshipNameMm": "အမ်း",
    "longitude": 94.04791,
    "latitude": 19.79537,
    "postalCode": "07150"
  },
  {
    "id": 270,
    "regionCode": "MMR012",
    "districtCode": "MMR012D003",
    "townshipCode": "MMR012014702",
    "townshipNameEn": "Tat Taung",
    "townshipNameMm": "တပ်တောင်",
    "longitude": 93.9358,
    "latitude": 19.5682,
    "postalCode": "07660"
  },
  {
    "id": 271,
    "regionCode": "MMR012",
    "districtCode": "MMR012D002",
    "townshipCode": "MMR012010701",
    "townshipNameEn": "Buthidaung",
    "townshipNameMm": "ဘူးသီးတောင်",
    "longitude": 92.525,
    "latitude": 20.87498,
    "postalCode": "07030"
  },
  {
    "id": 272,
    "regionCode": "MMR012",
    "districtCode": "MMR012D004",
    "townshipCode": "MMR012017701",
    "townshipNameEn": "Gwa",
    "townshipNameMm": "ဂွ",
    "longitude": 94.57996,
    "latitude": 17.59369,
    "postalCode": "07070"
  },
  {
    "id": 273,
    "regionCode": "MMR012",
    "districtCode": "MMR012D004",
    "townshipCode": "MMR012017702",
    "townshipNameEn": "Kyeintali",
    "townshipNameMm": "ကျိန္တလီ",
    "longitude": 94.49141,
    "latitude": 18.00712,
    "postalCode": "07700"
  },
  {
    "id": 274,
    "regionCode": "MMR012",
    "districtCode": "MMR012D003",
    "townshipCode": "MMR012011701",
    "townshipNameEn": "Kyaukpyu",
    "townshipNameMm": "ကျောက်ဖြူ",
    "longitude": 93.5544,
    "latitude": 19.4239,
    "postalCode": "07120"
  },
  {
    "id": 275,
    "regionCode": "MMR012",
    "districtCode": "MMR012D003",
    "townshipCode": "MMR012011702",
    "townshipNameEn": "Sa Ne",
    "townshipNameMm": "စနဲ",
    "longitude": 93.7336,
    "latitude": 19.2166,
    "postalCode": "07640"
  },
  {
    "id": 276,
    "regionCode": "MMR012",
    "districtCode": "MMR012D005",
    "townshipCode": "MMR012004701",
    "townshipNameEn": "Kyauktaw",
    "townshipNameMm": "ကျောက်တော်",
    "longitude": 92.97282,
    "latitude": 20.84396,
    "postalCode": "07060"
  },
  {
    "id": 277,
    "regionCode": "MMR012",
    "districtCode": "MMR012D002",
    "townshipCode": "MMR012009703",
    "townshipNameEn": "Kha Maung Seik",
    "townshipNameMm": "ခမောင်းဆိပ်",
    "longitude": 92.27141,
    "latitude": 21.26554,
    "postalCode": "07610"
  },
  {
    "id": 278,
    "regionCode": "MMR012",
    "districtCode": "MMR012D002",
    "townshipCode": "MMR012009701",
    "townshipNameEn": "Maungdaw",
    "townshipNameMm": "မောင်တော",
    "longitude": 92.36776,
    "latitude": 20.81897,
    "postalCode": "07020"
  },
  {
    "id": 279,
    "regionCode": "MMR012",
    "districtCode": "MMR012D002",
    "townshipCode": "MMR012009704",
    "townshipNameEn": "Myin Hlut",
    "townshipNameMm": "မြင်းလွှတ်",
    "longitude": 92.50212,
    "latitude": 20.62786,
    "postalCode": "07620"
  },
  {
    "id": 280,
    "regionCode": "MMR012",
    "districtCode": "MMR012D002",
    "townshipCode": "MMR012009702",
    "townshipNameEn": "Taungpyoletwea",
    "townshipNameMm": "တောင်ပြိုလက်ဝဲ",
    "longitude": 92.20068,
    "latitude": 21.19991,
    "postalCode": "07600"
  },
  {
    "id": 281,
    "regionCode": "MMR012",
    "districtCode": "MMR012D005",
    "townshipCode": "MMR012005701",
    "townshipNameEn": "Minbya",
    "townshipNameMm": "မင်းပြား",
    "longitude": 93.27269,
    "latitude": 20.36452,
    "postalCode": "07090"
  },
  {
    "id": 282,
    "regionCode": "MMR012",
    "districtCode": "MMR012D005",
    "townshipCode": "MMR012003701",
    "townshipNameEn": "Mrauk-U",
    "townshipNameMm": "မြောက်ဦး",
    "longitude": 93.18844,
    "latitude": 20.59185,
    "postalCode": "07100"
  },
  {
    "id": 283,
    "regionCode": "MMR012",
    "districtCode": "MMR012D003",
    "townshipCode": "MMR012012701",
    "townshipNameEn": "Munaung",
    "townshipNameMm": "မာန်အောင်",
    "longitude": 93.7215,
    "latitude": 18.85506,
    "postalCode": "07140"
  },
  {
    "id": 284,
    "regionCode": "MMR012",
    "districtCode": "MMR012D005",
    "townshipCode": "MMR012006702",
    "townshipNameEn": "Kanhtauntkyi",
    "townshipNameMm": "ကမ်းထောင့်ကြီး",
    "longitude": 93.75902,
    "latitude": 19.85695,
    "postalCode": "07630"
  },
  {
    "id": 285,
    "regionCode": "MMR012",
    "districtCode": "MMR012D005",
    "townshipCode": "MMR012006701",
    "townshipNameEn": "Myebon",
    "townshipNameMm": "မြေပုံ",
    "longitude": 93.37376,
    "latitude": 20.04676,
    "postalCode": "07110"
  },
  {
    "id": 286,
    "regionCode": "MMR012",
    "districtCode": "MMR012D001",
    "townshipCode": "MMR012007701",
    "townshipNameEn": "Pauktaw",
    "townshipNameMm": "ပေါက်တော",
    "longitude": 93.06817,
    "latitude": 20.18098,
    "postalCode": "07080"
  },
  {
    "id": 287,
    "regionCode": "MMR012",
    "districtCode": "MMR012D001",
    "townshipCode": "MMR012002701",
    "townshipNameEn": "Ponnagyun",
    "townshipNameMm": "ပုဏ္ဏားကျွန်း",
    "longitude": 93.0043,
    "latitude": 20.33199,
    "postalCode": "07050"
  },
  {
    "id": 288,
    "regionCode": "MMR012",
    "districtCode": "MMR012D003",
    "townshipCode": "MMR012013702",
    "townshipNameEn": "Lay Taung",
    "townshipNameMm": "လေးတောင်",
    "longitude": 93.69485,
    "latitude": 19.03862,
    "postalCode": "07650"
  },
  {
    "id": 289,
    "regionCode": "MMR012",
    "districtCode": "MMR012D003",
    "townshipCode": "MMR012013701",
    "townshipNameEn": "Ramree",
    "townshipNameMm": "ရမ်းဗြဲ",
    "longitude": 93.85886,
    "latitude": 19.08769,
    "postalCode": "07130"
  },
  {
    "id": 290,
    "regionCode": "MMR012",
    "districtCode": "MMR012D001",
    "townshipCode": "MMR012008701",
    "townshipNameEn": "Rathedaung",
    "townshipNameMm": "ရသေ့တောင်",
    "longitude": 92.75606,
    "latitude": 20.48215,
    "postalCode": "07040"
  },
  {
    "id": 291,
    "regionCode": "MMR012",
    "districtCode": "MMR012D001",
    "townshipCode": "MMR012001701",
    "townshipNameEn": "Sittwe",
    "townshipNameMm": "စစ်တွေ",
    "longitude": 92.88551,
    "latitude": 20.13727,
    "postalCode": "07010"
  },
  {
    "id": 292,
    "regionCode": "MMR012",
    "districtCode": "MMR012D004",
    "townshipCode": "MMR012015702",
    "townshipNameEn": "Ngapali",
    "townshipNameMm": "ငပလီ",
    "longitude": 94.3206,
    "latitude": 18.43755,
    "postalCode": "07690"
  },
  {
    "id": 293,
    "regionCode": "MMR012",
    "districtCode": "MMR012D004",
    "townshipCode": "MMR012015701",
    "townshipNameEn": "Thandwe",
    "townshipNameMm": "သံတွဲ",
    "longitude": 94.3677,
    "latitude": 18.4662,
    "postalCode": "07170"
  },
  {
    "id": 294,
    "regionCode": "MMR012",
    "districtCode": "MMR012D004",
    "townshipCode": "MMR012016702",
    "townshipNameEn": "Ma-Ei",
    "townshipNameMm": "မအီ",
    "longitude": 94.13845,
    "latitude": 19.34234,
    "postalCode": "07670"
  },
  {
    "id": 295,
    "regionCode": "MMR012",
    "districtCode": "MMR012D004",
    "townshipCode": "MMR012016703",
    "townshipNameEn": "Tan Hlwe Ywar Ma",
    "townshipNameMm": "တန်းလွဲရွာမ",
    "longitude": 94.12645,
    "latitude": 18.99829,
    "postalCode": "07680"
  },
  {
    "id": 296,
    "regionCode": "MMR012",
    "districtCode": "MMR012D004",
    "townshipCode": "MMR012016701",
    "townshipNameEn": "Toungup",
    "townshipNameMm": "တောင်ကုတ်",
    "longitude": 94.23972,
    "latitude": 18.85353,
    "postalCode": "07160"
  },
  {
    "id": 297,
    "regionCode": "MMR005",
    "districtCode": "MMR005D003",
    "townshipCode": "MMR005014701",
    "townshipNameEn": "Ayadaw",
    "townshipNameMm": "အရာတော်",
    "longitude": 95.45068,
    "latitude": 22.28525,
    "postalCode": "02290"
  },
  {
    "id": 298,
    "regionCode": "MMR005",
    "districtCode": "MMR005D004",
    "townshipCode": "MMR005023701",
    "townshipNameEn": "Banmauk",
    "townshipNameMm": "ဗန်းမောက်",
    "longitude": 95.85767,
    "latitude": 24.39986,
    "postalCode": "02130"
  },
  {
    "id": 299,
    "regionCode": "MMR005",
    "districtCode": "MMR005D003",
    "townshipCode": "MMR005013701",
    "townshipNameEn": "Budalin",
    "townshipNameMm": "ဘုတလင်",
    "longitude": 95.14857,
    "latitude": 22.38918,
    "postalCode": "02270"
  },
  {
    "id": 300,
    "regionCode": "MMR005",
    "districtCode": "MMR005D003",
    "townshipCode": "MMR005015701",
    "townshipNameEn": "Chaung-U",
    "townshipNameMm": "ချောင်းဦး",
    "longitude": 95.27363,
    "latitude": 21.95693,
    "postalCode": "02330"
  },
  {
    "id": 301,
    "regionCode": "MMR005",
    "districtCode": "MMR005D008",
    "townshipCode": "MMR005033701",
    "townshipNameEn": "Hkamti",
    "townshipNameMm": "ခန္တီး",
    "longitude": 95.69547,
    "latitude": 25.99243,
    "postalCode": "02030"
  },
  {
    "id": 302,
    "regionCode": "MMR005",
    "districtCode": "MMR005D008",
    "townshipCode": "MMR005034701",
    "townshipNameEn": "Homalin",
    "townshipNameMm": "ဟုမ္မလင်း",
    "longitude": 94.91088,
    "latitude": 24.8644,
    "postalCode": "02050"
  },
  {
    "id": 303,
    "regionCode": "MMR005",
    "districtCode": "MMR005D008",
    "townshipCode": "MMR005034702",
    "townshipNameEn": "Shwe Pyi Aye",
    "townshipNameMm": "ရွှေပြည်အေး",
    "longitude": 94.73147,
    "latitude": 24.68344,
    "postalCode": "02650"
  },
  {
    "id": 304,
    "regionCode": "MMR005",
    "districtCode": "MMR005D004",
    "townshipCode": "MMR005021701",
    "townshipNameEn": "Indaw",
    "townshipNameMm": "အင်းတော်",
    "longitude": 96.14167,
    "latitude": 24.22252,
    "postalCode": "02140"
  },
  {
    "id": 305,
    "regionCode": "MMR005",
    "districtCode": "MMR005D004",
    "townshipCode": "MMR005021702",
    "townshipNameEn": "Maw Lu",
    "townshipNameMm": "မော်လူး",
    "longitude": 96.1796,
    "latitude": 24.4649,
    "postalCode": "02680"
  },
  {
    "id": 306,
    "regionCode": "MMR005",
    "districtCode": "MMR005D005",
    "townshipCode": "MMR005027701",
    "townshipNameEn": "Kale",
    "townshipNameMm": "ကလေး",
    "longitude": 94.02977,
    "latitude": 23.1933,
    "postalCode": "02090"
  },
  {
    "id": 307,
    "regionCode": "MMR005",
    "districtCode": "MMR005D005",
    "townshipCode": "MMR005028701",
    "townshipNameEn": "Kalewa",
    "townshipNameMm": "ကလေးဝ",
    "longitude": 94.30036,
    "latitude": 23.1998,
    "postalCode": "02100"
  },
  {
    "id": 308,
    "regionCode": "MMR005",
    "districtCode": "MMR005D010",
    "townshipCode": "MMR005007701",
    "townshipNameEn": "Kanbalu",
    "townshipNameMm": "ကန့်ဘလူ",
    "longitude": 95.51886,
    "latitude": 23.20305,
    "postalCode": "02210"
  },
  {
    "id": 309,
    "regionCode": "MMR005",
    "districtCode": "MMR005D010",
    "townshipCode": "MMR005007702",
    "townshipNameEn": "Zee Kone",
    "townshipNameMm": "ဇီးကုန်း",
    "longitude": 95.5636,
    "latitude": 22.9311,
    "postalCode": "02690"
  },
  {
    "id": 310,
    "regionCode": "MMR005",
    "districtCode": "MMR005D009",
    "townshipCode": "MMR005017701",
    "townshipNameEn": "Kani",
    "townshipNameMm": "ကနီ",
    "longitude": 94.84847,
    "latitude": 22.43291,
    "postalCode": "02120"
  },
  {
    "id": 311,
    "regionCode": "MMR005",
    "districtCode": "MMR005D004",
    "townshipCode": "MMR005020701",
    "townshipNameEn": "Katha",
    "townshipNameMm": "ကသာ",
    "longitude": 96.33167,
    "latitude": 24.18163,
    "postalCode": "02150"
  },
  {
    "id": 312,
    "regionCode": "MMR005",
    "districtCode": "MMR005D011",
    "townshipCode": "MMR005024701",
    "townshipNameEn": "Kawlin",
    "townshipNameMm": "ကောလင်း",
    "longitude": 95.68339,
    "latitude": 23.79026,
    "postalCode": "02180"
  },
  {
    "id": 313,
    "regionCode": "MMR005",
    "districtCode": "MMR005D002",
    "townshipCode": "MMR005005701",
    "townshipNameEn": "Khin-U",
    "townshipNameMm": "ခင်ဦး",
    "longitude": 95.62149,
    "latitude": 22.77016,
    "postalCode": "02230"
  },
  {
    "id": 314,
    "regionCode": "MMR005",
    "districtCode": "MMR005D010",
    "townshipCode": "MMR005008701",
    "townshipNameEn": "Kyunhla",
    "townshipNameMm": "ကျွန်းလှ",
    "longitude": 95.5321,
    "latitude": 23.31964,
    "postalCode": "02200"
  },
  {
    "id": 315,
    "regionCode": "MMR005",
    "districtCode": "MMR005D007",
    "townshipCode": "MMR005031701",
    "townshipNameEn": "Mawlaik",
    "townshipNameMm": "မော်လိုက်",
    "longitude": 94.41201,
    "latitude": 23.63512,
    "postalCode": "02080"
  },
  {
    "id": 316,
    "regionCode": "MMR005",
    "districtCode": "MMR005D005",
    "townshipCode": "MMR005029701",
    "townshipNameEn": "Mingin",
    "townshipNameMm": "မင်းကင်း",
    "longitude": 94.4942,
    "latitude": 22.87781,
    "postalCode": "02110"
  },
  {
    "id": 317,
    "regionCode": "MMR005",
    "districtCode": "MMR005D003",
    "townshipCode": "MMR005012701",
    "townshipNameEn": "Monywa",
    "townshipNameMm": "မုံရွာ",
    "longitude": 95.13963,
    "latitude": 22.12168,
    "postalCode": "02300"
  },
  {
    "id": 318,
    "regionCode": "MMR005",
    "districtCode": "MMR005D001",
    "townshipCode": "MMR005003701",
    "townshipNameEn": "Myaung",
    "townshipNameMm": "မြောင်",
    "longitude": 95.42425,
    "latitude": 21.83164,
    "postalCode": "02360"
  },
  {
    "id": 319,
    "regionCode": "MMR005",
    "districtCode": "MMR005D001",
    "townshipCode": "MMR005002701",
    "townshipNameEn": "Myinmu",
    "townshipNameMm": "မြင်းမူ",
    "longitude": 95.57157,
    "latitude": 21.92681,
    "postalCode": "02340"
  },
  {
    "id": 320,
    "regionCode": "MMR005",
    "districtCode": "MMR005D009",
    "townshipCode": "MMR005019701",
    "townshipNameEn": "Pale",
    "townshipNameMm": "ပုလဲ",
    "longitude": 94.87486,
    "latitude": 21.93415,
    "postalCode": "02350"
  },
  {
    "id": 321,
    "regionCode": "MMR005",
    "districtCode": "MMR005D007",
    "townshipCode": "MMR005032701",
    "townshipNameEn": "Paungbyin",
    "townshipNameMm": "ဖောင်းပြင်",
    "longitude": 94.81686,
    "latitude": 24.26768,
    "postalCode": "02060"
  },
  {
    "id": 322,
    "regionCode": "MMR005",
    "districtCode": "MMR005D011",
    "townshipCode": "MMR005026701",
    "townshipNameEn": "Pinlebu",
    "townshipNameMm": "ပင်လည်ဘူး",
    "longitude": 95.37026,
    "latitude": 24.08089,
    "postalCode": "02160"
  },
  {
    "id": 323,
    "regionCode": "MMR005",
    "districtCode": "MMR005D001",
    "townshipCode": "MMR005001701",
    "townshipNameEn": "Sagaing",
    "townshipNameMm": "စစ်ကိုင်း",
    "longitude": 95.96231,
    "latitude": 21.88008,
    "postalCode": "02370"
  },
  {
    "id": 324,
    "regionCode": "MMR005",
    "districtCode": "MMR005D001",
    "townshipCode": "MMR005001702",
    "townshipNameEn": "Sar Taung",
    "townshipNameMm": "ဆားတောင်",
    "longitude": 95.7574,
    "latitude": 22.1639,
    "postalCode": "02720"
  },
  {
    "id": 325,
    "regionCode": "MMR005",
    "districtCode": "MMR005D009",
    "townshipCode": "MMR005018701",
    "townshipNameEn": "Salingyi",
    "townshipNameMm": "ဆားလင်းကြီး",
    "longitude": 95.08269,
    "latitude": 21.97363,
    "postalCode": "02320"
  },
  {
    "id": 326,
    "regionCode": "MMR005",
    "districtCode": "MMR005D002",
    "townshipCode": "MMR005004702",
    "townshipNameEn": "Kyauk Myaung",
    "townshipNameMm": "",
    "longitude": 95.94495,
    "latitude": 22.59329,
    "postalCode": "02710"
  },
  {
    "id": 327,
    "regionCode": "MMR005",
    "districtCode": "MMR005D002",
    "townshipCode": "MMR005004701",
    "townshipNameEn": "Shwebo",
    "townshipNameMm": "ရွှေဘို",
    "longitude": 95.69849,
    "latitude": 22.56996,
    "postalCode": "02260"
  },
  {
    "id": 328,
    "regionCode": "MMR005",
    "districtCode": "MMR005D002",
    "townshipCode": "MMR005010702",
    "townshipNameEn": "Saing Pyin",
    "townshipNameMm": "စိုင်ပြင်",
    "longitude": 95.2366,
    "latitude": 22.5561,
    "postalCode": "02700"
  },
  {
    "id": 329,
    "regionCode": "MMR005",
    "districtCode": "MMR005D002",
    "townshipCode": "MMR005010701",
    "townshipNameEn": "Tabayin",
    "townshipNameMm": "ဒီပဲယင်း",
    "longitude": 95.32121,
    "latitude": 22.68529,
    "postalCode": "02250"
  },
  {
    "id": 330,
    "regionCode": "MMR005",
    "districtCode": "MMR005D006",
    "townshipCode": "MMR005030703",
    "townshipNameEn": "Khampat",
    "townshipNameMm": "ခါမ်းပါတ်",
    "longitude": 94.14575,
    "latitude": 23.77977,
    "postalCode": "02670"
  },
  {
    "id": 331,
    "regionCode": "MMR005",
    "districtCode": "MMR005D006",
    "townshipCode": "MMR005030702",
    "townshipNameEn": "Myothit",
    "townshipNameMm": "မြို့သစ်",
    "longitude": 94.51857,
    "latitude": 24.51539,
    "postalCode": "02660"
  },
  {
    "id": 332,
    "regionCode": "MMR005",
    "districtCode": "MMR005D006",
    "townshipCode": "MMR005030701",
    "townshipNameEn": "Tamu",
    "townshipNameMm": "တမူး",
    "longitude": 94.31534,
    "latitude": 24.21149,
    "postalCode": "02070"
  },
  {
    "id": 333,
    "regionCode": "MMR005",
    "districtCode": "MMR005D002",
    "townshipCode": "MMR005011701",
    "townshipNameEn": "Taze",
    "townshipNameMm": "တန့်ဆည်",
    "longitude": 95.37361,
    "latitude": 22.94407,
    "postalCode": "02220"
  },
  {
    "id": 334,
    "regionCode": "MMR005",
    "districtCode": "MMR005D004",
    "townshipCode": "MMR005022701",
    "townshipNameEn": "Tigyaing",
    "townshipNameMm": "ထီးချိုင့်",
    "longitude": 96.14833,
    "latitude": 23.75452,
    "postalCode": "02190"
  },
  {
    "id": 335,
    "regionCode": "MMR005",
    "districtCode": "MMR005D002",
    "townshipCode": "MMR005006701",
    "townshipNameEn": "Wetlet",
    "townshipNameMm": "ဝက်လက်",
    "longitude": 95.78812,
    "latitude": 22.36715,
    "postalCode": "02280"
  },
  {
    "id": 336,
    "regionCode": "MMR005",
    "districtCode": "MMR005D011",
    "townshipCode": "MMR005025701",
    "townshipNameEn": "Wuntho",
    "townshipNameMm": "ဝန်းသို",
    "longitude": 95.68193,
    "latitude": 23.89924,
    "postalCode": "02170"
  },
  {
    "id": 337,
    "regionCode": "MMR005",
    "districtCode": "MMR005D002",
    "townshipCode": "MMR005009701",
    "townshipNameEn": "Ye-U",
    "townshipNameMm": "ရေဦး",
    "longitude": 95.43049,
    "latitude": 22.76914,
    "postalCode": "02240"
  },
  {
    "id": 338,
    "regionCode": "MMR005",
    "districtCode": "MMR005D009",
    "townshipCode": "MMR005016701",
    "townshipNameEn": "Yinmarbin",
    "townshipNameMm": "ယင်းမာပင်",
    "longitude": 94.90014,
    "latitude": 22.07779,
    "postalCode": "02310"
  },
  {
    "id": 339,
    "regionCode": "MMR014",
    "districtCode": "MMR016D001",
    "townshipCode": "MMR016001701",
    "townshipNameEn": "Kengtung",
    "townshipNameMm": "ကျိုင်းတုံ",
    "longitude": 99.6036,
    "latitude": 21.29189,
    "postalCode": "17010"
  },
  {
    "id": 340,
    "regionCode": "MMR014",
    "districtCode": "MMR016D003",
    "townshipCode": "MMR016010701",
    "townshipNameEn": "Monghpyak",
    "townshipNameMm": "မိုင်းဖြတ်",
    "longitude": 99.92333,
    "latitude": 20.87804,
    "postalCode": "17090"
  },
  {
    "id": 341,
    "regionCode": "MMR014",
    "districtCode": "MMR016D002",
    "townshipCode": "MMR016006701",
    "townshipNameEn": "Monghsat",
    "townshipNameMm": "မိုင်းဆတ်",
    "longitude": 99.24724,
    "latitude": 20.50544,
    "postalCode": "17050"
  },
  {
    "id": 342,
    "regionCode": "MMR014",
    "districtCode": "MMR016D002",
    "townshipCode": "MMR016006702",
    "townshipNameEn": "Mongkhoke",
    "townshipNameMm": "မိုင်းခုတ်",
    "longitude": 99.4636,
    "latitude": 20.74048,
    "postalCode": "17600"
  },
  {
    "id": 343,
    "regionCode": "MMR014",
    "districtCode": "MMR016D001",
    "townshipCode": "MMR016002701",
    "townshipNameEn": "Mongkhet",
    "townshipNameMm": "မိုင်းခတ်",
    "longitude": 99.46377,
    "latitude": 21.7499,
    "postalCode": "17020"
  },
  {
    "id": 344,
    "regionCode": "MMR014",
    "districtCode": "MMR016D001",
    "townshipCode": "MMR016005701",
    "townshipNameEn": "Mongla",
    "townshipNameMm": "မိုင်းလား",
    "longitude": 100.01867,
    "latitude": 21.6729,
    "postalCode": "17040"
  },
  {
    "id": 345,
    "regionCode": "MMR014",
    "districtCode": "MMR016D001",
    "townshipCode": "MMR016007701",
    "townshipNameEn": "Mongping",
    "townshipNameMm": "မိုင်းပျဉ်း",
    "longitude": 99.026,
    "latitude": 21.3502,
    "postalCode": "17060"
  },
  {
    "id": 346,
    "regionCode": "MMR014",
    "districtCode": "MMR016D001",
    "townshipCode": "MMR016007702",
    "townshipNameEn": "Tontar",
    "townshipNameMm": "တုံတာ",
    "longitude": 99.28781,
    "latitude": 21.33004,
    "postalCode": "17610"
  },
  {
    "id": 347,
    "regionCode": "MMR014",
    "districtCode": "MMR016D002",
    "townshipCode": "MMR016008703",
    "townshipNameEn": "Hmone Hta",
    "townshipNameMm": "မုံးထ",
    "longitude": 98.56708,
    "latitude": 19.7979,
    "postalCode": "17630"
  },
  {
    "id": 348,
    "regionCode": "MMR014",
    "districtCode": "MMR016D002",
    "townshipCode": "MMR016008701",
    "townshipNameEn": "Mongton",
    "townshipNameMm": "မိုင်းတုံ",
    "longitude": 98.90008,
    "latitude": 20.30351,
    "postalCode": "17070"
  },
  {
    "id": 349,
    "regionCode": "MMR014",
    "districtCode": "MMR016D002",
    "townshipCode": "MMR016008702",
    "townshipNameEn": "Ponparkyin",
    "townshipNameMm": "ပုံပါကျင်",
    "longitude": 98.9382,
    "latitude": 19.8892,
    "postalCode": "17620"
  },
  {
    "id": 350,
    "regionCode": "MMR014",
    "districtCode": "MMR016D001",
    "townshipCode": "MMR016003701",
    "townshipNameEn": "Mongyang",
    "townshipNameMm": "မိုင်းယန်း",
    "longitude": 99.68711,
    "latitude": 21.84235,
    "postalCode": "17030"
  },
  {
    "id": 351,
    "regionCode": "MMR014",
    "districtCode": "MMR016D003",
    "townshipCode": "MMR016011701",
    "townshipNameEn": "Mongyawng",
    "townshipNameMm": "မိုင်းယောင်း",
    "longitude": 100.3579,
    "latitude": 21.1807,
    "postalCode": "17100"
  },
  {
    "id": 352,
    "regionCode": "MMR014",
    "districtCode": "MMR016D003",
    "townshipCode": "MMR016011702",
    "townshipNameEn": "Mongyu",
    "townshipNameMm": "မိုင်းယု",
    "longitude": 100.55082,
    "latitude": 21.32976,
    "postalCode": "17660"
  },
  {
    "id": 353,
    "regionCode": "MMR014",
    "districtCode": "MMR016D003",
    "townshipCode": "MMR016009702",
    "townshipNameEn": "Kenglat",
    "townshipNameMm": "ကျိုင်းလပ်",
    "longitude": 100.534,
    "latitude": 20.867,
    "postalCode": "17640"
  },
  {
    "id": 354,
    "regionCode": "MMR014",
    "districtCode": "MMR016D003",
    "townshipCode": "MMR016009701",
    "townshipNameEn": "Tachileik",
    "townshipNameMm": "တာချီလိတ်",
    "longitude": 99.88403,
    "latitude": 20.45304,
    "postalCode": "17080"
  },
  {
    "id": 355,
    "regionCode": "MMR014",
    "districtCode": "MMR016D003",
    "townshipCode": "MMR016009703",
    "townshipNameEn": "Tarlay",
    "townshipNameMm": "တာလေ",
    "longitude": 100.09307,
    "latitude": 20.71262,
    "postalCode": "17650"
  },
  {
    "id": 356,
    "regionCode": "MMR014",
    "districtCode": "MMR015D006",
    "townshipCode": "MMR015021701",
    "townshipNameEn": "Hopang",
    "townshipNameMm": "ဟိုပန်",
    "longitude": 98.75029,
    "latitude": 23.42544,
    "postalCode": "16210"
  },
  {
    "id": 357,
    "regionCode": "MMR014",
    "districtCode": "MMR015D006",
    "townshipCode": "MMR015021703",
    "townshipNameEn": "Pan Lon",
    "townshipNameMm": "ပန်လုံ",
    "longitude": 98.78571,
    "latitude": 23.25641,
    "postalCode": "16680"
  },
  {
    "id": 358,
    "regionCode": "MMR014",
    "districtCode": "MMR015D001",
    "townshipCode": "MMR015002701",
    "townshipNameEn": "Hseni",
    "townshipNameMm": "သိန္နီ",
    "longitude": 97.9736,
    "latitude": 23.3072,
    "postalCode": "16020"
  },
  {
    "id": 359,
    "regionCode": "MMR014",
    "districtCode": "MMR015D003",
    "townshipCode": "MMR015014701",
    "townshipNameEn": "Hsipaw",
    "townshipNameMm": "သီပေါ",
    "longitude": 97.2981,
    "latitude": 22.61894,
    "postalCode": "16140"
  },
  {
    "id": 360,
    "regionCode": "MMR014",
    "districtCode": "MMR015D005",
    "townshipCode": "MMR015023701",
    "townshipNameEn": "Konkyan",
    "townshipNameMm": "ကုန်းကြမ်း",
    "longitude": 98.53934,
    "latitude": 23.82946,
    "postalCode": "16230"
  },
  {
    "id": 361,
    "regionCode": "MMR014",
    "districtCode": "MMR015D005",
    "townshipCode": "MMR015023702",
    "townshipNameEn": "Maw Hteik",
    "townshipNameMm": "",
    "longitude": 98.79679,
    "latitude": 24.09412,
    "postalCode": "16700"
  },
  {
    "id": 362,
    "regionCode": "MMR014",
    "districtCode": "MMR015D001",
    "townshipCode": "MMR015020701",
    "townshipNameEn": "Kunlong",
    "townshipNameMm": "ကွမ်းလုံ",
    "longitude": 98.65053,
    "latitude": 23.41645,
    "postalCode": "16200"
  },
  {
    "id": 363,
    "regionCode": "MMR014",
    "districtCode": "MMR015D002",
    "townshipCode": "MMR015011701",
    "townshipNameEn": "Kutkai",
    "townshipNameMm": "ကွတ်ခိုင်",
    "longitude": 97.94341,
    "latitude": 23.45921,
    "postalCode": "16110"
  },
  {
    "id": 364,
    "regionCode": "MMR014",
    "districtCode": "MMR015D002",
    "townshipCode": "MMR015011702",
    "townshipNameEn": "Tarmoenye",
    "townshipNameMm": "တာမိုးညဲ",
    "longitude": 98.09862,
    "latitude": 23.57597,
    "postalCode": "16640"
  },
  {
    "id": 365,
    "regionCode": "MMR014",
    "districtCode": "MMR015D003",
    "townshipCode": "MMR015012701",
    "townshipNameEn": "Kyaukme",
    "townshipNameMm": "ကျောက်မဲ",
    "longitude": 97.03671,
    "latitude": 22.54172,
    "postalCode": "16120"
  },
  {
    "id": 366,
    "regionCode": "MMR014",
    "districtCode": "MMR015D003",
    "townshipCode": "MMR015012703",
    "townshipNameEn": "Monglon",
    "townshipNameMm": "မိုင်းလုံ",
    "longitude": 96.62431,
    "latitude": 22.7908,
    "postalCode": "16660"
  },
  {
    "id": 367,
    "regionCode": "MMR014",
    "districtCode": "MMR015D003",
    "townshipCode": "MMR015012702",
    "townshipNameEn": "Mongngawt",
    "townshipNameMm": "မိုင်းငေါ့",
    "longitude": 96.98402,
    "latitude": 22.77316,
    "postalCode": "16650"
  },
  {
    "id": 368,
    "regionCode": "MMR014",
    "districtCode": "MMR015D001",
    "townshipCode": "MMR015001701",
    "townshipNameEn": "Lashio",
    "townshipNameMm": "လားရှိုး",
    "longitude": 97.74747,
    "latitude": 22.95277,
    "postalCode": "16010"
  },
  {
    "id": 369,
    "regionCode": "MMR014",
    "districtCode": "MMR015D005",
    "townshipCode": "MMR015022702",
    "townshipNameEn": "Chinshwehaw",
    "townshipNameMm": "ချင်းရွှေဟော်",
    "longitude": 98.82419,
    "latitude": 23.47557,
    "postalCode": "16690"
  },
  {
    "id": 370,
    "regionCode": "MMR014",
    "districtCode": "MMR015D005",
    "townshipCode": "MMR015022701",
    "townshipNameEn": "Laukkaing",
    "townshipNameMm": "လောက်ကိုင်",
    "longitude": 98.76408,
    "latitude": 23.69163,
    "postalCode": "16220"
  },
  {
    "id": 371,
    "regionCode": "MMR014",
    "districtCode": "MMR015D008",
    "townshipCode": "MMR015018701",
    "townshipNameEn": "Mabein",
    "townshipNameMm": "မဘိမ်း",
    "longitude": 96.6292,
    "latitude": 23.47292,
    "postalCode": "16180"
  },
  {
    "id": 372,
    "regionCode": "MMR014",
    "districtCode": "MMR015D003",
    "townshipCode": "MMR015019701",
    "townshipNameEn": "Manton",
    "townshipNameMm": "မန်တုံ",
    "longitude": 97.12222,
    "latitude": 23.24648,
    "postalCode": "16190"
  },
  {
    "id": 373,
    "regionCode": "MMR014",
    "districtCode": "MMR015D007",
    "townshipCode": "MMR015024701",
    "townshipNameEn": "Matman",
    "townshipNameMm": "မက်မန်း",
    "longitude": 98.87088,
    "latitude": 21.95417,
    "postalCode": "16240"
  },
  {
    "id": 374,
    "regionCode": "MMR014",
    "districtCode": "MMR015D008",
    "townshipCode": "MMR015017701",
    "townshipNameEn": "Mongmit",
    "townshipNameMm": "မိုးမိတ်",
    "longitude": 96.66999,
    "latitude": 23.11422,
    "postalCode": "16170"
  },
  {
    "id": 375,
    "regionCode": "MMR014",
    "districtCode": "MMR015D001",
    "townshipCode": "MMR015003701",
    "townshipNameEn": "Mongyai",
    "townshipNameMm": "မိုင်းရယ်",
    "longitude": 98.039,
    "latitude": 22.42762,
    "postalCode": "16030"
  },
  {
    "id": 376,
    "regionCode": "MMR014",
    "districtCode": "MMR015D002",
    "townshipCode": "MMR015009703",
    "townshipNameEn": "Manhlyoe (Manhero)",
    "townshipNameMm": "(မန်ဟျိုး) မန်ဟီးရိုး",
    "longitude": 97.80064,
    "latitude": 23.95176,
    "postalCode": "16620"
  },
  {
    "id": 377,
    "regionCode": "MMR014",
    "districtCode": "MMR015D002",
    "townshipCode": "MMR015009702",
    "townshipNameEn": "Monekoe",
    "townshipNameMm": "မုန်းကိုး",
    "longitude": 98.3031,
    "latitude": 24.0998,
    "postalCode": "16610"
  },
  {
    "id": 378,
    "regionCode": "MMR014",
    "districtCode": "MMR015D002",
    "townshipCode": "MMR015009701",
    "townshipNameEn": "Muse",
    "townshipNameMm": "မူဆယ်",
    "longitude": 97.90165,
    "latitude": 23.98989,
    "postalCode": "16090"
  },
  {
    "id": 379,
    "regionCode": "MMR014",
    "districtCode": "MMR015D002",
    "townshipCode": "MMR015009704",
    "townshipNameEn": "Pang Hseng (Kyu Koke)",
    "townshipNameMm": "ပန်ဆိုင်း (ကြူကုတ်)",
    "longitude": 98.06229,
    "latitude": 24.07548,
    "postalCode": "16630"
  },
  {
    "id": 380,
    "regionCode": "MMR014",
    "districtCode": "MMR015D331",
    "townshipCode": "MMR015301701",
    "townshipNameEn": "Nam Tit",
    "townshipNameMm": "နမ့်တစ်",
    "longitude": 98.86718,
    "latitude": 23.47584,
    "postalCode": "16670"
  },
  {
    "id": 381,
    "regionCode": "MMR014",
    "districtCode": "MMR015D002",
    "townshipCode": "MMR015010701",
    "townshipNameEn": "Namhkan",
    "townshipNameMm": "နမ့်ခမ်း",
    "longitude": 97.6818,
    "latitude": 23.837,
    "postalCode": "16100"
  },
  {
    "id": 382,
    "regionCode": "MMR014",
    "districtCode": "MMR015D003",
    "townshipCode": "MMR015016701",
    "townshipNameEn": "Namhsan",
    "townshipNameMm": "နမ့်ဆန်",
    "longitude": 97.16126,
    "latitude": 22.96407,
    "postalCode": "16160"
  },
  {
    "id": 383,
    "regionCode": "MMR014",
    "districtCode": "MMR015D003",
    "townshipCode": "MMR015015701",
    "townshipNameEn": "Namtu",
    "townshipNameMm": "နမ္မတူ",
    "longitude": 97.40049,
    "latitude": 23.09361,
    "postalCode": "16150"
  },
  {
    "id": 384,
    "regionCode": "MMR014",
    "districtCode": "MMR015D003",
    "townshipCode": "MMR015013701",
    "townshipNameEn": "Nawnghkio",
    "townshipNameMm": "နောင်ချို",
    "longitude": 96.79895,
    "latitude": 22.33003,
    "postalCode": "16130"
  },
  {
    "id": 385,
    "regionCode": "MMR014",
    "districtCode": "MMR015D007",
    "townshipCode": "MMR015005702",
    "townshipNameEn": "Man Kan",
    "townshipNameMm": "မန်ကန်",
    "longitude": 98.59519,
    "latitude": 22.68954,
    "postalCode": "16600"
  },
  {
    "id": 386,
    "regionCode": "MMR014",
    "districtCode": "MMR015D007",
    "townshipCode": "MMR015005701",
    "townshipNameEn": "Pangsang (Panghkam)",
    "townshipNameMm": "ပန်ဆန်း (ပန်ခမ်း)",
    "longitude": 99.17044,
    "latitude": 22.17594,
    "postalCode": "16050"
  },
  {
    "id": 387,
    "regionCode": "MMR014",
    "districtCode": "MMR015D001",
    "townshipCode": "MMR015004701",
    "townshipNameEn": "Tangyan",
    "townshipNameMm": "တန့်ယန်း",
    "longitude": 98.3968,
    "latitude": 22.4981,
    "postalCode": "16040"
  },
  {
    "id": 388,
    "regionCode": "MMR014",
    "districtCode": "MMR014D001",
    "townshipCode": "MMR014003701",
    "townshipNameEn": "Hopong",
    "townshipNameMm": "ဟိုပုံး",
    "longitude": 97.17024,
    "latitude": 20.79743,
    "postalCode": "06090"
  },
  {
    "id": 389,
    "regionCode": "MMR014",
    "districtCode": "MMR014D001",
    "townshipCode": "MMR014004701",
    "townshipNameEn": "Hsihseng",
    "townshipNameMm": "ဆီဆိုင်",
    "longitude": 97.2519,
    "latitude": 20.16227,
    "postalCode": "06100"
  },
  {
    "id": 390,
    "regionCode": "MMR014",
    "districtCode": "MMR014D001",
    "townshipCode": "MMR014005702",
    "townshipNameEn": "Aungpan",
    "townshipNameMm": "အောင်ပန်း",
    "longitude": 96.63584,
    "latitude": 20.66122,
    "postalCode": "06630"
  },
  {
    "id": 391,
    "regionCode": "MMR014",
    "districtCode": "MMR014D001",
    "townshipCode": "MMR014005703",
    "townshipNameEn": "He Hoe",
    "townshipNameMm": "ဟဲဟိုး",
    "longitude": 96.8239,
    "latitude": 20.7221,
    "postalCode": "06640"
  },
  {
    "id": 392,
    "regionCode": "MMR014",
    "districtCode": "MMR014D001",
    "townshipCode": "MMR014005701",
    "townshipNameEn": "Kalaw",
    "townshipNameMm": "ကလော",
    "longitude": 96.55864,
    "latitude": 20.62418,
    "postalCode": "06020"
  },
  {
    "id": 393,
    "regionCode": "MMR014",
    "districtCode": "MMR014D002",
    "townshipCode": "MMR014014702",
    "townshipNameEn": "Kar Li",
    "townshipNameMm": "ကာလိ",
    "longitude": 98.53381,
    "latitude": 21.28872,
    "postalCode": "06740"
  },
  {
    "id": 394,
    "regionCode": "MMR014",
    "districtCode": "MMR014D002",
    "townshipCode": "MMR014014701",
    "townshipNameEn": "Kunhing",
    "townshipNameMm": "ကွန်ဟိန်း",
    "longitude": 98.424,
    "latitude": 21.301,
    "postalCode": "06210"
  },
  {
    "id": 395,
    "regionCode": "MMR014",
    "districtCode": "MMR014D002",
    "townshipCode": "MMR014015701",
    "townshipNameEn": "Kyethi",
    "townshipNameMm": "ကျေးသီး",
    "longitude": 97.81933,
    "latitude": 21.92515,
    "postalCode": "06150"
  },
  {
    "id": 396,
    "regionCode": "MMR014",
    "districtCode": "MMR014D002",
    "townshipCode": "MMR014015702",
    "townshipNameEn": "Mongnawng",
    "townshipNameMm": "မိုင်းနောင်",
    "longitude": 98.123,
    "latitude": 21.645,
    "postalCode": "06700"
  },
  {
    "id": 397,
    "regionCode": "MMR014",
    "districtCode": "MMR014D002",
    "townshipCode": "MMR014012701",
    "townshipNameEn": "Laihka",
    "townshipNameMm": "လဲချား",
    "longitude": 97.66509,
    "latitude": 21.27024,
    "postalCode": "06120"
  },
  {
    "id": 398,
    "regionCode": "MMR014",
    "districtCode": "MMR014D003",
    "townshipCode": "MMR014018702",
    "townshipNameEn": "Homein",
    "townshipNameMm": "ဟိုမိန်း",
    "longitude": 97.979,
    "latitude": 19.769,
    "postalCode": "06730"
  },
  {
    "id": 399,
    "regionCode": "MMR014",
    "districtCode": "MMR014D003",
    "townshipCode": "MMR014018701",
    "townshipNameEn": "Langkho",
    "townshipNameMm": "လင်းခေး",
    "longitude": 98.00371,
    "latitude": 20.34222,
    "postalCode": "06190"
  },
  {
    "id": 400,
    "regionCode": "MMR014",
    "districtCode": "MMR014D001",
    "townshipCode": "MMR014008702",
    "townshipNameEn": "Intaw",
    "townshipNameMm": "အင်တော",
    "longitude": 96.92252,
    "latitude": 21.63124,
    "postalCode": "06670"
  },
  {
    "id": 401,
    "regionCode": "MMR014",
    "districtCode": "MMR014D001",
    "townshipCode": "MMR014008701",
    "townshipNameEn": "Lawksawk",
    "townshipNameMm": "ရပ်စောက်",
    "longitude": 96.86518,
    "latitude": 21.24664,
    "postalCode": "06070"
  },
  {
    "id": 402,
    "regionCode": "MMR014",
    "districtCode": "MMR014D002",
    "townshipCode": "MMR014011701",
    "townshipNameEn": "Loilen",
    "townshipNameMm": "လွိုင်လင်",
    "longitude": 97.56581,
    "latitude": 20.92536,
    "postalCode": "06110"
  },
  {
    "id": 403,
    "regionCode": "MMR014",
    "districtCode": "MMR014D002",
    "townshipCode": "MMR014011702",
    "townshipNameEn": "Pinlon",
    "townshipNameMm": "ပင်လုံ",
    "longitude": 97.532,
    "latitude": 20.991,
    "postalCode": "06680"
  },
  {
    "id": 404,
    "regionCode": "MMR014",
    "districtCode": "MMR014D003",
    "townshipCode": "MMR014020701",
    "townshipNameEn": "Mawkmai",
    "townshipNameMm": "မောက်မယ်",
    "longitude": 97.72369,
    "latitude": 20.2305,
    "postalCode": "06180"
  },
  {
    "id": 405,
    "regionCode": "MMR014",
    "districtCode": "MMR014D002",
    "townshipCode": "MMR014017701",
    "townshipNameEn": "Monghsu",
    "townshipNameMm": "မိုင်းရှူး",
    "longitude": 98.36044,
    "latitude": 21.90513,
    "postalCode": "06140"
  },
  {
    "id": 406,
    "regionCode": "MMR014",
    "districtCode": "MMR014D002",
    "townshipCode": "MMR014017702",
    "townshipNameEn": "Mongsan (Hmonesan)",
    "townshipNameMm": "မိုင်းစံ (မုန်းဆန်း)",
    "longitude": 98.36456,
    "latitude": 21.65989,
    "postalCode": "06690"
  },
  {
    "id": 407,
    "regionCode": "MMR014",
    "districtCode": "MMR014D002",
    "townshipCode": "MMR014016701",
    "townshipNameEn": "Mongkaing",
    "townshipNameMm": "မိုင်းကိုင်",
    "longitude": 97.52699,
    "latitude": 21.61149,
    "postalCode": "06130"
  },
  {
    "id": 408,
    "regionCode": "MMR014",
    "districtCode": "MMR014D003",
    "townshipCode": "MMR014019702",
    "townshipNameEn": "Kengtawng",
    "townshipNameMm": "ကျိုင်းတောင်း",
    "longitude": 98.29333,
    "latitude": 20.75728,
    "postalCode": "06720"
  },
  {
    "id": 409,
    "regionCode": "MMR014",
    "districtCode": "MMR014D003",
    "townshipCode": "MMR014019701",
    "townshipNameEn": "Mongnai",
    "townshipNameMm": "မိုးနဲ",
    "longitude": 97.8712,
    "latitude": 20.5136,
    "postalCode": "06170"
  },
  {
    "id": 410,
    "regionCode": "MMR014",
    "districtCode": "MMR014D003",
    "townshipCode": "MMR014021701",
    "townshipNameEn": "Mongpan",
    "townshipNameMm": "မိုင်းပန်",
    "longitude": 98.3541,
    "latitude": 20.3188,
    "postalCode": "06200"
  },
  {
    "id": 411,
    "regionCode": "MMR014",
    "districtCode": "MMR014D002",
    "townshipCode": "MMR014013702",
    "townshipNameEn": "Kho Lam",
    "townshipNameMm": "ခိုလမ်",
    "longitude": 98.10086,
    "latitude": 21.09887,
    "postalCode": "06710"
  },
  {
    "id": 412,
    "regionCode": "MMR014",
    "districtCode": "MMR014D002",
    "townshipCode": "MMR014013701",
    "townshipNameEn": "Nansang",
    "townshipNameMm": "နမ့်စန်",
    "longitude": 97.72022,
    "latitude": 20.88912,
    "postalCode": "06160"
  },
  {
    "id": 413,
    "regionCode": "MMR014",
    "districtCode": "MMR014D001",
    "townshipCode": "MMR014002702",
    "townshipNameEn": "Nang Pang",
    "townshipNameMm": "နန်းပန်",
    "longitude": 96.90596,
    "latitude": 20.45493,
    "postalCode": "06750"
  },
  {
    "id": 414,
    "regionCode": "MMR014",
    "districtCode": "MMR014D001",
    "townshipCode": "MMR014002701",
    "townshipNameEn": "Nyaungshwe",
    "townshipNameMm": "ညောင်ရွှေ",
    "longitude": 96.93206,
    "latitude": 20.65957,
    "postalCode": "06080"
  },
  {
    "id": 415,
    "regionCode": "MMR014",
    "districtCode": "MMR014D001",
    "townshipCode": "MMR014010701",
    "townshipNameEn": "Pekon",
    "townshipNameMm": "ဖယ်ခုံ",
    "longitude": 97.00831,
    "latitude": 19.86348,
    "postalCode": "06060"
  },
  {
    "id": 416,
    "regionCode": "MMR014",
    "districtCode": "MMR014D001",
    "townshipCode": "MMR014006701",
    "townshipNameEn": "Pindaya",
    "townshipNameMm": "ပင်းတယ",
    "longitude": 96.66279,
    "latitude": 20.94158,
    "postalCode": "06030"
  },
  {
    "id": 417,
    "regionCode": "MMR014",
    "districtCode": "MMR014D001",
    "townshipCode": "MMR014009702",
    "townshipNameEn": "Naungtayar",
    "townshipNameMm": "နောင်တရား",
    "longitude": 96.75691,
    "latitude": 20.29326,
    "postalCode": "06650"
  },
  {
    "id": 418,
    "regionCode": "MMR014",
    "districtCode": "MMR014D001",
    "townshipCode": "MMR014009703",
    "townshipNameEn": "Pawng Lawng",
    "townshipNameMm": "ပေါင်းလောင်း",
    "longitude": 96.58254,
    "latitude": 19.98626,
    "postalCode": "06660"
  },
  {
    "id": 419,
    "regionCode": "MMR014",
    "districtCode": "MMR014D001",
    "townshipCode": "MMR014009701",
    "townshipNameEn": "Pinlaung",
    "townshipNameMm": "ပင်လောင်း",
    "longitude": 96.78219,
    "latitude": 20.12439,
    "postalCode": "06050"
  },
  {
    "id": 420,
    "regionCode": "MMR014",
    "districtCode": "MMR014D001",
    "townshipCode": "MMR014001702",
    "townshipNameEn": "Ayetharyar",
    "townshipNameMm": "အေးသာယာ",
    "longitude": 96.99882,
    "latitude": 20.77475,
    "postalCode": "06610"
  },
  {
    "id": 421,
    "regionCode": "MMR014",
    "districtCode": "MMR014D001",
    "townshipCode": "MMR014001703",
    "townshipNameEn": "Kyauktalonegyi",
    "townshipNameMm": "ကျောက်တလုံးကြီး",
    "longitude": 97.024,
    "latitude": 20.371,
    "postalCode": "06620"
  },
  {
    "id": 422,
    "regionCode": "MMR014",
    "districtCode": "MMR014D001",
    "townshipCode": "MMR014001704",
    "townshipNameEn": "Shwenyaung",
    "townshipNameMm": "ရွှေညောင်",
    "longitude": 96.93614,
    "latitude": 20.76015,
    "postalCode": "06600"
  },
  {
    "id": 423,
    "regionCode": "MMR014",
    "districtCode": "MMR014D001",
    "townshipCode": "MMR014001701",
    "townshipNameEn": "Taunggyi",
    "townshipNameMm": "တောင်ကြီး",
    "longitude": 97.03598,
    "latitude": 20.77477,
    "postalCode": "06010"
  },
  {
    "id": 424,
    "regionCode": "MMR014",
    "districtCode": "MMR014D001",
    "townshipCode": "MMR014007701",
    "townshipNameEn": "Ywangan",
    "townshipNameMm": "ရွာငံ",
    "longitude": 96.44229,
    "latitude": 21.16282,
    "postalCode": "06040"
  },
  {
    "id": 425,
    "regionCode": "MMR006",
    "districtCode": "MMR006D003",
    "townshipCode": "MMR006010701",
    "townshipNameEn": "Bokpyin",
    "townshipNameMm": "ဘုတ်ပြင်း",
    "longitude": 98.75909,
    "latitude": 11.26504,
    "postalCode": "14080"
  },
  {
    "id": 426,
    "regionCode": "MMR006",
    "districtCode": "MMR006D003",
    "townshipCode": "MMR006010703",
    "townshipNameEn": "Karathuri",
    "townshipNameMm": "ကရသူရိ",
    "longitude": 98.75998,
    "latitude": 10.93336,
    "postalCode": "14660"
  },
  {
    "id": 427,
    "regionCode": "MMR006",
    "districtCode": "MMR006D003",
    "townshipCode": "MMR006010702",
    "townshipNameEn": "Pyigyimandaing",
    "townshipNameMm": "ပြည်ကြီးမဏ္ဍိုင်",
    "longitude": 99.00144,
    "latitude": 11.46842,
    "postalCode": "14650"
  },
  {
    "id": 428,
    "regionCode": "MMR006",
    "districtCode": "MMR006D001",
    "townshipCode": "MMR006001701",
    "townshipNameEn": "Dawei",
    "townshipNameMm": "ထားဝယ်",
    "longitude": 98.19636,
    "latitude": 14.07753,
    "postalCode": "14010"
  },
  {
    "id": 429,
    "regionCode": "MMR006",
    "districtCode": "MMR006D001",
    "townshipCode": "MMR006001702",
    "townshipNameEn": "Myitta",
    "townshipNameMm": "မေတ္တာ",
    "longitude": 98.52017,
    "latitude": 14.16355,
    "postalCode": "14600"
  },
  {
    "id": 430,
    "regionCode": "MMR006",
    "districtCode": "MMR006D003",
    "townshipCode": "MMR006009701",
    "townshipNameEn": "Kawthoung",
    "townshipNameMm": "ကော့သောင်း",
    "longitude": 98.54995,
    "latitude": 9.98261,
    "postalCode": "14090"
  },
  {
    "id": 431,
    "regionCode": "MMR006",
    "districtCode": "MMR006D003",
    "townshipCode": "MMR006009702",
    "townshipNameEn": "Khamaukgyi",
    "townshipNameMm": "ခမောက်ကြီး",
    "longitude": 98.625,
    "latitude": 10.353,
    "postalCode": "14670"
  },
  {
    "id": 432,
    "regionCode": "MMR006",
    "districtCode": "MMR006D002",
    "townshipCode": "MMR006006701",
    "townshipNameEn": "Kyunsu",
    "townshipNameMm": "ကျွန်းစု",
    "longitude": 98.45443,
    "latitude": 12.47386,
    "postalCode": "14100"
  },
  {
    "id": 433,
    "regionCode": "MMR006",
    "districtCode": "MMR006D001",
    "townshipCode": "MMR006002701",
    "townshipNameEn": "Launglon",
    "townshipNameMm": "လောင်းလုံး",
    "longitude": 98.11963,
    "latitude": 13.97522,
    "postalCode": "14040"
  },
  {
    "id": 434,
    "regionCode": "MMR006",
    "districtCode": "MMR006D002",
    "townshipCode": "MMR006005701",
    "townshipNameEn": "Myeik",
    "townshipNameMm": "မြိတ်",
    "longitude": 98.60978,
    "latitude": 12.44112,
    "postalCode": "14050"
  },
  {
    "id": 435,
    "regionCode": "MMR006",
    "districtCode": "MMR006D002",
    "townshipCode": "MMR006007703",
    "townshipNameEn": "Pala",
    "townshipNameMm": "ပလ",
    "longitude": 98.66188,
    "latitude": 12.84928,
    "postalCode": "14630"
  },
  {
    "id": 436,
    "regionCode": "MMR006",
    "districtCode": "MMR006D002",
    "townshipCode": "MMR006007702",
    "townshipNameEn": "Palauk",
    "townshipNameMm": "ပလောက်",
    "longitude": 98.62248,
    "latitude": 13.27223,
    "postalCode": "14620"
  },
  {
    "id": 437,
    "regionCode": "MMR006",
    "districtCode": "MMR006D002",
    "townshipCode": "MMR006007701",
    "townshipNameEn": "Palaw",
    "townshipNameMm": "ပုလော",
    "longitude": 98.64579,
    "latitude": 12.97531,
    "postalCode": "14060"
  },
  {
    "id": 438,
    "regionCode": "MMR006",
    "districtCode": "MMR006D002",
    "townshipCode": "MMR006008702",
    "townshipNameEn": "Maw Taung",
    "townshipNameMm": "မောတောင်",
    "longitude": 99.6275,
    "latitude": 11.7952,
    "postalCode": "14640"
  },
  {
    "id": 439,
    "regionCode": "MMR006",
    "districtCode": "MMR006D002",
    "townshipCode": "MMR006008701",
    "townshipNameEn": "Tanintharyi",
    "townshipNameMm": "တနင်္သာရီ",
    "longitude": 99.01278,
    "latitude": 12.08941,
    "postalCode": "14070"
  },
  {
    "id": 440,
    "regionCode": "MMR006",
    "districtCode": "MMR006D001",
    "townshipCode": "MMR006003701",
    "townshipNameEn": "Thayetchaung",
    "townshipNameMm": "သရက်ချောင်း",
    "longitude": 98.26252,
    "latitude": 13.8687,
    "postalCode": "14030"
  },
  {
    "id": 441,
    "regionCode": "MMR006",
    "districtCode": "MMR006D001",
    "townshipCode": "MMR006004702",
    "townshipNameEn": "Kaleinaung",
    "townshipNameMm": "ကလိန်အောင်",
    "longitude": 98.13849,
    "latitude": 14.6238,
    "postalCode": "14610"
  },
  {
    "id": 442,
    "regionCode": "MMR006",
    "districtCode": "MMR006D001",
    "townshipCode": "MMR006004701",
    "townshipNameEn": "Yebyu",
    "townshipNameMm": "ရေဖြူ",
    "longitude": 98.20291,
    "latitude": 14.24591,
    "postalCode": "14020"
  },
  {
    "id": 443,
    "regionCode": "MMR013",
    "districtCode": "MMR013D004",
    "townshipCode": "MMR013037701",
    "townshipNameEn": "Ahlone",
    "townshipNameMm": "အလုံ",
    "longitude": 96.12786,
    "latitude": 16.7824,
    "postalCode": "11120"
  },
  {
    "id": 444,
    "regionCode": "MMR013",
    "districtCode": "MMR013D004",
    "townshipCode": "MMR013044701",
    "townshipNameEn": "Bahan",
    "townshipNameMm": "ဗဟန်း",
    "longitude": 96.15611,
    "latitude": 16.81543,
    "postalCode": "11200"
  },
  {
    "id": 445,
    "regionCode": "MMR013",
    "districtCode": "MMR013D002",
    "townshipCode": "MMR013017701",
    "townshipNameEn": "Botahtaung",
    "townshipNameMm": "ဗိုလ်တထောင်",
    "longitude": 96.16971,
    "latitude": 16.77197,
    "postalCode": "11160"
  },
  {
    "id": 446,
    "regionCode": "MMR013",
    "districtCode": "MMR013D003",
    "townshipCode": "MMR013032701",
    "townshipNameEn": "Cocokyun",
    "townshipNameMm": "ကိုကိုးကျွန်း",
    "longitude": 93.36821,
    "latitude": 14.13443,
    "postalCode": "11280"
  },
  {
    "id": 447,
    "regionCode": "MMR013",
    "districtCode": "MMR013D004",
    "townshipCode": "MMR013043701",
    "townshipNameEn": "Dagon",
    "townshipNameMm": "ဒဂုံ",
    "longitude": 96.1469,
    "latitude": 16.79495,
    "postalCode": "11190"
  },
  {
    "id": 448,
    "regionCode": "MMR013",
    "districtCode": "MMR013D002",
    "townshipCode": "MMR013020701",
    "townshipNameEn": "Dagon Myothit (East)",
    "townshipNameMm": "ဒဂုံမြို့သစ် (အရှေ့ပိုင်း)",
    "longitude": 96.21323,
    "latitude": 16.91281,
    "postalCode": "11450"
  },
  {
    "id": 449,
    "regionCode": "MMR013",
    "districtCode": "MMR013D002",
    "townshipCode": "MMR013019701",
    "townshipNameEn": "Dagon Myothit (North)",
    "townshipNameMm": "ဒဂုံမြို့သစ်(မြောက်ပိုင်း)",
    "longitude": 96.19079,
    "latitude": 16.87774,
    "postalCode": "11420"
  },
  {
    "id": 450,
    "regionCode": "MMR013",
    "districtCode": "MMR013D002",
    "townshipCode": "MMR013021701",
    "townshipNameEn": "Dagon Myothit (Seikkan)",
    "townshipNameMm": "ဒဂုံမြို့သစ် (ဆိပ်ကမ်း)",
    "longitude": 96.27256,
    "latitude": 16.84049,
    "postalCode": "11440"
  },
  {
    "id": 451,
    "regionCode": "MMR013",
    "districtCode": "MMR013D002",
    "townshipCode": "MMR013018701",
    "townshipNameEn": "Dagon Myothit (South)",
    "townshipNameMm": "ဒဂုံမြို့သစ်(တောင်ပိုင်း)",
    "longitude": 96.22582,
    "latitude": 16.84016,
    "postalCode": "11430"
  },
  {
    "id": 452,
    "regionCode": "MMR013",
    "districtCode": "MMR013D003",
    "townshipCode": "MMR013030701",
    "townshipNameEn": "Dala",
    "townshipNameMm": "ဒလ",
    "longitude": 96.143,
    "latitude": 16.75855,
    "postalCode": "11260"
  },
  {
    "id": 453,
    "regionCode": "MMR013",
    "districtCode": "MMR013D002",
    "townshipCode": "MMR013014701",
    "townshipNameEn": "Dawbon",
    "townshipNameMm": "ဒေါပုံ",
    "longitude": 96.18435,
    "latitude": 16.78192,
    "postalCode": "11240"
  },
  {
    "id": 454,
    "regionCode": "MMR013",
    "districtCode": "MMR013D004",
    "townshipCode": "MMR013040701",
    "townshipNameEn": "Hlaing",
    "townshipNameMm": "လှိုင်",
    "longitude": 96.12523,
    "latitude": 16.84793,
    "postalCode": "11050"
  },
  {
    "id": 455,
    "regionCode": "MMR013",
    "districtCode": "MMR013D001",
    "townshipCode": "MMR013046701",
    "townshipNameEn": "Hlaingtharya (East)",
    "townshipNameMm": "လှိုင်သာယာ (အရှေ့ပိုင်း)",
    "longitude": 96.06893,
    "latitude": null,
    "postalCode": "11400"
  },
  {
    "id": 456,
    "regionCode": "MMR013",
    "districtCode": "MMR013D001",
    "townshipCode": "MMR013047701",
    "townshipNameEn": "Hlaingtharya (West)",
    "townshipNameMm": "လှိုင်သာယာ (အနောက်ပိုင်း)",
    "longitude": 96.06893,
    "latitude": null,
    "postalCode": "11410"
  },
  {
    "id": 457,
    "regionCode": "MMR013",
    "districtCode": "MMR013D001",
    "townshipCode": "MMR013004701",
    "townshipNameEn": "Hlegu",
    "townshipNameMm": "လှည်းကူး",
    "longitude": 96.22745,
    "latitude": 17.09875,
    "postalCode": "11370"
  },
  {
    "id": 458,
    "regionCode": "MMR013",
    "districtCode": "MMR013D001",
    "townshipCode": "MMR013003701",
    "townshipNameEn": "Hmawbi",
    "townshipNameMm": "မှော်ဘီ",
    "longitude": 96.0418,
    "latitude": 17.09987,
    "postalCode": "11360"
  },
  {
    "id": 459,
    "regionCode": "MMR013",
    "districtCode": "MMR013D001",
    "townshipCode": "MMR013006701",
    "townshipNameEn": "Htantabin",
    "townshipNameMm": "ထန်းတပင်",
    "longitude": 95.9827,
    "latitude": 17.0174,
    "postalCode": "08130"
  },
  {
    "id": 460,
    "regionCode": "MMR013",
    "districtCode": "MMR013D001",
    "townshipCode": "MMR013001701",
    "townshipNameEn": "Insein",
    "townshipNameMm": "အင်းစိန်",
    "longitude": 96.09596,
    "latitude": 16.90177,
    "postalCode": "11010"
  },
  {
    "id": 461,
    "regionCode": "MMR013",
    "districtCode": "MMR013D004",
    "townshipCode": "MMR013041701",
    "townshipNameEn": "Kamayut",
    "townshipNameMm": "ကမာရွတ်",
    "longitude": 96.13244,
    "latitude": 16.82768,
    "postalCode": "11040"
  },
  {
    "id": 462,
    "regionCode": "MMR013",
    "districtCode": "MMR013D003",
    "townshipCode": "MMR013028701",
    "townshipNameEn": "Kawhmu",
    "townshipNameMm": "ကော့မှူး",
    "longitude": 96.06195,
    "latitude": 16.54616,
    "postalCode": "11350"
  },
  {
    "id": 463,
    "regionCode": "MMR013",
    "districtCode": "MMR013D003",
    "townshipCode": "MMR013026701",
    "townshipNameEn": "Kayan",
    "townshipNameMm": "ခရမ်း",
    "longitude": 96.5605,
    "latitude": 16.90544,
    "postalCode": "11320"
  },
  {
    "id": 464,
    "regionCode": "MMR013",
    "districtCode": "MMR013D003",
    "townshipCode": "MMR013029701",
    "townshipNameEn": "Kungyangon",
    "townshipNameMm": "ကွမ်းခြံကုန်း",
    "longitude": 96.0119,
    "latitude": 16.4394,
    "postalCode": "11340"
  },
  {
    "id": 465,
    "regionCode": "MMR013",
    "districtCode": "MMR013D004",
    "townshipCode": "MMR013033701",
    "townshipNameEn": "Kyauktada",
    "townshipNameMm": "ကျောက်တံတား",
    "longitude": 96.16164,
    "latitude": 16.77426,
    "postalCode": "11180"
  },
  {
    "id": 466,
    "regionCode": "MMR013",
    "districtCode": "MMR013D003",
    "townshipCode": "MMR013024701",
    "townshipNameEn": "Kyauktan",
    "townshipNameMm": "ကျောက်တန်း",
    "longitude": 96.32351,
    "latitude": 16.63393,
    "postalCode": "11300"
  },
  {
    "id": 467,
    "regionCode": "MMR013",
    "districtCode": "MMR013D003",
    "townshipCode": "MMR013024702",
    "townshipNameEn": "Tadar",
    "townshipNameMm": "တံတား",
    "longitude": 96.53949,
    "latitude": 16.64788,
    "postalCode": "11610"
  },
  {
    "id": 468,
    "regionCode": "MMR013",
    "districtCode": "MMR013D004",
    "townshipCode": "MMR013038701",
    "townshipNameEn": "Kyeemyindaing",
    "townshipNameMm": "ကြည့်မြင်တိုင်",
    "longitude": 96.12188,
    "latitude": 16.81457,
    "postalCode": "11100"
  },
  {
    "id": 469,
    "regionCode": "MMR013",
    "districtCode": "MMR013D004",
    "townshipCode": "MMR013035701",
    "townshipNameEn": "Lanmadaw",
    "townshipNameMm": "လမ်းမတော်",
    "longitude": 96.14234,
    "latitude": 16.77991,
    "postalCode": "11130"
  },
  {
    "id": 470,
    "regionCode": "MMR013",
    "districtCode": "MMR013D004",
    "townshipCode": "MMR013036701",
    "townshipNameEn": "Latha",
    "townshipNameMm": "လသာ",
    "longitude": 96.15053,
    "latitude": 16.77712,
    "postalCode": "11150"
  },
  {
    "id": 471,
    "regionCode": "MMR013",
    "districtCode": "MMR013D004",
    "townshipCode": "MMR013042701",
    "townshipNameEn": "Mayangone",
    "townshipNameMm": "မရမ်းကုန်း",
    "longitude": 96.14261,
    "latitude": 16.86619,
    "postalCode": "11060"
  },
  {
    "id": 472,
    "regionCode": "MMR013",
    "districtCode": "MMR013D001",
    "townshipCode": "MMR013002702",
    "townshipNameEn": "Htaukkyant",
    "townshipNameMm": "ထောက်ကြန့်",
    "longitude": 96.13231,
    "latitude": 17.04276,
    "postalCode": "11600"
  },
  {
    "id": 473,
    "regionCode": "MMR013",
    "districtCode": "MMR013D001",
    "townshipCode": "MMR013002701",
    "townshipNameEn": "Mingaladon",
    "townshipNameMm": "မင်္ဂလာဒုံ",
    "longitude": 96.12795,
    "latitude": 16.94914,
    "postalCode": "11020"
  },
  {
    "id": 474,
    "regionCode": "MMR013",
    "districtCode": "MMR013D002",
    "townshipCode": "MMR013022701",
    "townshipNameEn": "Mingalartaungnyunt",
    "townshipNameMm": "မင်္ဂလာတောင်ညွန့်",
    "longitude": 96.16786,
    "latitude": 16.78891,
    "postalCode": "11220"
  },
  {
    "id": 475,
    "regionCode": "MMR013",
    "districtCode": "MMR013D002",
    "townshipCode": "MMR013012701",
    "townshipNameEn": "North Okkalapa",
    "townshipNameMm": "မြောက်ဥက္ကလာပ",
    "longitude": 96.16303,
    "latitude": 16.91878,
    "postalCode": "11030"
  },
  {
    "id": 476,
    "regionCode": "MMR013",
    "districtCode": "MMR013D004",
    "townshipCode": "MMR013034701",
    "townshipNameEn": "Pabedan",
    "townshipNameMm": "ပန်းဘဲတန်း",
    "longitude": 96.15601,
    "latitude": 16.77698,
    "postalCode": "11140"
  },
  {
    "id": 477,
    "regionCode": "MMR013",
    "districtCode": "MMR013D002",
    "townshipCode": "MMR013016701",
    "townshipNameEn": "Pazundaung",
    "townshipNameMm": "ပုဇွန်တောင်",
    "longitude": 96.17439,
    "latitude": 16.77965,
    "postalCode": "11170"
  },
  {
    "id": 478,
    "regionCode": "MMR013",
    "districtCode": "MMR013D004",
    "townshipCode": "MMR013039701",
    "townshipNameEn": "Sanchaung",
    "townshipNameMm": "စမ်းချောင်း",
    "longitude": 96.13729,
    "latitude": 16.80381,
    "postalCode": "11110"
  },
  {
    "id": 479,
    "regionCode": "MMR013",
    "districtCode": "MMR013D003",
    "townshipCode": "MMR013031701",
    "townshipNameEn": "Seikgyikanaungto",
    "townshipNameMm": "ဆိပ်ကြီး/ခနောင်တို",
    "longitude": 96.11637,
    "latitude": 16.75779,
    "postalCode": "11270"
  },
  {
    "id": 480,
    "regionCode": "MMR013",
    "districtCode": "MMR013D001",
    "townshipCode": "MMR013007701",
    "townshipNameEn": "Shwepyithar",
    "townshipNameMm": "ရွှေပြည်သာ",
    "longitude": 96.08329,
    "latitude": 16.95504,
    "postalCode": "11250"
  },
  {
    "id": 481,
    "regionCode": "MMR013",
    "districtCode": "MMR013D002",
    "townshipCode": "MMR013011701",
    "townshipNameEn": "South Okkalapa",
    "townshipNameMm": "တောင်ဥက္ကလာပ",
    "longitude": 96.17986,
    "latitude": 16.84625,
    "postalCode": "11090"
  },
  {
    "id": 482,
    "regionCode": "MMR013",
    "districtCode": "MMR013D001",
    "townshipCode": "MMR013005703",
    "townshipNameEn": "Ahpyauk",
    "townshipNameMm": "အဖျောက်",
    "longitude": 95.69338,
    "latitude": 17.38239,
    "postalCode": "11630"
  },
  {
    "id": 483,
    "regionCode": "MMR013",
    "districtCode": "MMR013D001",
    "townshipCode": "MMR013005702",
    "townshipNameEn": "Okekan",
    "townshipNameMm": "ဥက္ကံ",
    "longitude": 95.8607,
    "latitude": 17.49696,
    "postalCode": "11620"
  },
  {
    "id": 484,
    "regionCode": "MMR013",
    "districtCode": "MMR013D001",
    "townshipCode": "MMR013005701",
    "townshipNameEn": "Taikkyi",
    "townshipNameMm": "တိုက်ကြီး",
    "longitude": 95.96344,
    "latitude": 17.31263,
    "postalCode": "11380"
  },
  {
    "id": 485,
    "regionCode": "MMR013",
    "districtCode": "MMR013D002",
    "townshipCode": "MMR013015701",
    "townshipNameEn": "Tamwe",
    "townshipNameMm": "တာမွေ",
    "longitude": 96.17646,
    "latitude": 16.81018,
    "postalCode": "11210"
  },
  {
    "id": 486,
    "regionCode": "MMR013",
    "districtCode": "MMR013D002",
    "townshipCode": "MMR013013701",
    "townshipNameEn": "Thaketa",
    "townshipNameMm": "သာကေတ",
    "longitude": 96.20296,
    "latitude": 16.79301,
    "postalCode": "11230"
  },
  {
    "id": 487,
    "regionCode": "MMR013",
    "districtCode": "MMR013D003",
    "townshipCode": "MMR013023701",
    "townshipNameEn": "Thanlyin",
    "townshipNameMm": "သန်လျင်",
    "longitude": 96.25184,
    "latitude": 16.76378,
    "postalCode": "11290"
  },
  {
    "id": 488,
    "regionCode": "MMR013",
    "districtCode": "MMR013D002",
    "townshipCode": "MMR013009701",
    "townshipNameEn": "Thingangyun",
    "townshipNameMm": "သင်္ဃန်းကျွန်း",
    "longitude": 96.19323,
    "latitude": 16.83101,
    "postalCode": "11070"
  },
  {
    "id": 489,
    "regionCode": "MMR013",
    "districtCode": "MMR013D003",
    "townshipCode": "MMR013025701",
    "townshipNameEn": "Thongwa",
    "townshipNameMm": "သုံးခွ",
    "longitude": 96.52309,
    "latitude": 16.7586,
    "postalCode": "11310"
  },
  {
    "id": 490,
    "regionCode": "MMR013",
    "districtCode": "MMR013D003",
    "townshipCode": "MMR013027701",
    "townshipNameEn": "Twantay",
    "townshipNameMm": "တွံတေး",
    "longitude": 95.93047,
    "latitude": 16.70734,
    "postalCode": "11330"
  },
  {
    "id": 491,
    "regionCode": "MMR013",
    "districtCode": "MMR013D002",
    "townshipCode": "MMR013010701",
    "townshipNameEn": "Yankin",
    "townshipNameMm": "ရန်ကင်း",
    "longitude": 96.1624,
    "latitude": 16.83601,
    "postalCode": "11080"
  }
]